{
"type": "FeatureCollection",
"name": "Jalan Cisirung",
"crs": { "type": "name", "properties": { "name": "urn:ogc:def:crs:OGC:1.3:CRS84" } },
"features": [
{"type":"Feature","properties":{"full_id":"w180719958","osm_id":"180719958","osm_type":"way","highway":"secondary","tunnel":null,"covered":null,"import":null,"foot":null,"bicycle":null,"oneway":null,"access":null,"motorcar":null,"motorcycle":null,"width":null,"motor_vehicle":null,"surface":null,"service":null,"avgspeed":null,"lanes":"2","ref":"083","name":"Jalan Cisirung","layer":null,"bridge":null},"geometry":{"type":"MultiLineString","coordinates":[[[107.6017224,-6.9745548],[107.6016265,-6.9745402],[107.6013576,-6.9745036],[107.6011875,-6.9744652],[107.6011303,-6.9744522],[107.6011189,-6.9744497],[107.601074,-6.9744395],[107.6009557,-6.9744283],[107.6007588,-6.9744251],[107.6000613,-6.9744018],[107.5999854,-6.9743897],[107.5999527,-6.9743853],[107.5998871,-6.9743698],[107.5998455,-6.9743543],[107.5998026,-6.9743265],[107.5997624,-6.9742878],[107.5996497,-6.9741626],[107.5995532,-6.9740694],[107.5995103,-6.9740443],[107.59947,-6.974029],[107.5993761,-6.9740148],[107.5992467,-6.974009],[107.5991844,-6.9740017],[107.5990489,-6.9739877],[107.5989316,-6.9739791],[107.5988585,-6.9739751],[107.5987907,-6.9739651],[107.5987224,-6.9739465],[107.5986432,-6.9739132],[107.5985601,-6.9738686],[107.5983408,-6.9737242],[107.5981611,-6.9735977],[107.5981182,-6.9735804],[107.5980847,-6.9735791],[107.5980498,-6.9735917],[107.5979961,-6.9736277],[107.597803,-6.9738613],[107.59772,-6.9739754],[107.5976327,-6.9741016],[107.5974691,-6.9743064],[107.597398,-6.9743778],[107.5973417,-6.9744297],[107.5972371,-6.9745202],[107.5971355,-6.9745864],[107.5970346,-6.9746433],[107.5968415,-6.9747518],[107.5967033,-6.9748563],[107.5965216,-6.9749801],[107.5964995,-6.9749954],[107.5964297,-6.9750181],[107.596354,-6.975032],[107.5963036,-6.9750354],[107.5962118,-6.975036]],[[107.6017224,-6.9745548],[107.6017479,-6.9743585],[107.6017459,-6.9743239],[107.6017385,-6.9742912],[107.6017291,-6.9742653],[107.6017211,-6.9742427],[107.6017114,-6.9741515],[107.6017237,-6.9740444],[107.6017418,-6.9738405],[107.6017574,-6.9737279],[107.6018411,-6.9731243],[107.6018723,-6.972988],[107.601967,-6.9726984],[107.602002,-6.9726211],[107.6020302,-6.9725494],[107.6020718,-6.9723883],[107.6020959,-6.9722404],[107.6021898,-6.9713539],[107.6022371,-6.9710658],[107.6022702,-6.9707016],[107.6023131,-6.9702596],[107.602352,-6.970028],[107.6023775,-6.9698816],[107.6024177,-6.9696899],[107.6024472,-6.9695567],[107.6024875,-6.9692506],[107.6025455,-6.9688081],[107.6025894,-6.9686409],[107.6026318,-6.9684468],[107.6026578,-6.9683275],[107.6027257,-6.9680161],[107.6027369,-6.9679646],[107.6028084,-6.9676582],[107.6028456,-6.9674985],[107.6028791,-6.9673549],[107.6029864,-6.9669011],[107.6030531,-6.9666674],[107.6030829,-6.9664938],[107.6031232,-6.9663113],[107.6031439,-6.9661505],[107.6031795,-6.9659226],[107.6035225,-6.9649495],[107.6037025,-6.9645036],[107.6038087,-6.9642691]],[[107.608491,-6.9747206],[107.6084122,-6.9747089],[107.6083267,-6.9747046],[107.608214,-6.9747059],[107.6080839,-6.9747219],[107.6078881,-6.9747359],[107.6077063,-6.9747243],[107.6075059,-6.9746999],[107.6070513,-6.97465],[107.6068937,-6.9746194],[107.6066622,-6.974573],[107.6065541,-6.9745504],[107.6057082,-6.9744017],[107.6053961,-6.9743235],[107.6053367,-6.9743086],[107.6052274,-6.9742813],[107.6050175,-6.97421],[107.6048827,-6.9741661],[107.6048398,-6.9741541],[107.6047748,-6.9741395],[107.6047111,-6.9741322],[107.6046564,-6.9741318],[107.6046149,-6.9741416],[107.6045281,-6.9741682],[107.6044425,-6.9742019],[107.6042739,-6.9742719],[107.6041853,-6.9743016],[107.6040244,-6.9743771],[107.603936,-6.9744106],[107.6037355,-6.9744764],[107.6036784,-6.9744796],[107.6036268,-6.9744776],[107.6033743,-6.9744535],[107.6033055,-6.9744457],[107.6031336,-6.9744214],[107.6028782,-6.9743808],[107.6027745,-6.9743971],[107.602696,-6.9744304],[107.6026082,-6.9744848],[107.6025353,-6.9745348],[107.6025029,-6.9745595],[107.6024607,-6.9745859],[107.6023466,-6.9746236],[107.6022971,-6.9746285],[107.60223,-6.9746187],[107.6021737,-6.9746147],[107.6019457,-6.9745854],[107.6017224,-6.9745548]]]}}
]
}
