{
  "type": "FeatureCollection",
  "features": [
    {
      "type": "Feature",
      "geometry": {
        "type": "Point",
        "coordinates": [
          107.6044519,
          -6.9164303,
          0
        ]
      },
      "properties": {
        "name": "Pasar Baru",
        "styleUrl": "#8292",
        "styleHash": "-56a3b59d"
      },
      "id": "8291"
    },
    {
      "type": "Feature",
      "geometry": {
        "type": "Point",
        "coordinates": [
          107.6106299,
          -6.9065922,
          0
        ]
      },
      "properties": {
        "name": "The-One-O-One B",
        "styleUrl": "#8297",
        "styleHash": "7825b248"
      },
      "id": "8296"
    },
    {
      "type": "Feature",
      "geometry": {
        "type": "Point",
        "coordinates": [
          107.6128497,
          -6.897514,
          0
        ]
      },
      "properties": {
        "name": "Kartikasari B",
        "styleUrl": "#8302",
        "styleHash": "3d78d8cd"
      },
      "id": "8301"
    },
    {
      "type": "Feature",
      "geometry": {
        "type": "Point",
        "coordinates": [
          107.6116031,
          -6.902518,
          0
        ]
      },
      "properties": {
        "name": "Taman Radio B",
        "styleUrl": "#8307",
        "styleHash": "c4240b2"
      },
      "id": "8306"
    },
    {
      "type": "Feature",
      "geometry": {
        "type": "Point",
        "coordinates": [
          107.6040142,
          -6.9219758,
          0
        ]
      },
      "properties": {
        "name": "Dalem Kaum",
        "styleUrl": "#8312",
        "styleHash": "72bff68c"
      },
      "id": "8311"
    },
    {
      "type": "Feature",
      "geometry": {
        "type": "Point",
        "coordinates": [
          107.6055097,
          -6.9375586,
          0
        ]
      },
      "properties": {
        "name": "Simpang Mohamad Toha Biddokkes",
        "styleUrl": "#8317",
        "styleHash": "41895e71"
      },
      "id": "8316"
    },
    {
      "type": "Feature",
      "geometry": {
        "type": "Point",
        "coordinates": [
          107.6134343,
          -6.8948051,
          0
        ]
      },
      "properties": {
        "name": "Rumah Sakit Santo Borromeus B",
        "styleUrl": "#8322",
        "styleHash": "-57f8ebb5"
      },
      "id": "8321"
    },
    {
      "type": "Feature",
      "geometry": {
        "type": "Point",
        "coordinates": [
          107.6177764,
          -6.8923055,
          0
        ]
      },
      "properties": {
        "name": "UNPAD Dipatiukur (4D)",
        "styleUrl": "#8327",
        "styleHash": "76d07c30"
      },
      "id": "8326"
    },
    {
      "type": "Feature",
      "geometry": {
        "type": "Point",
        "coordinates": [
          107.608993,
          -6.9145426,
          0
        ]
      },
      "properties": {
        "name": "Bank Indonesia",
        "styleUrl": "#8332",
        "styleHash": "-22b1cdf6"
      },
      "id": "8331"
    },
    {
      "type": "Feature",
      "geometry": {
        "type": "Point",
        "coordinates": [
          107.610623,
          -6.9088887,
          0
        ]
      },
      "properties": {
        "name": "Bandung Indah Plaza",
        "styleUrl": "#8337",
        "styleHash": "-53e86611"
      },
      "id": "8336"
    },
    {
      "type": "Feature",
      "geometry": {
        "type": "Point",
        "coordinates": [
          107.6104548,
          -6.9125343,
          0
        ]
      },
      "properties": {
        "name": "Merdeka",
        "styleUrl": "#8342",
        "styleHash": "12954fc9"
      },
      "id": "8341"
    },
    {
      "type": "Feature",
      "geometry": {
        "type": "Point",
        "coordinates": [
          107.6039218,
          -6.9314959,
          0
        ]
      },
      "properties": {
        "name": "Jalan Ibu Inggit Garnasih",
        "styleUrl": "#8347",
        "styleHash": "-1ea14852"
      },
      "id": "8346"
    },
    {
      "type": "Feature",
      "geometry": {
        "type": "Point",
        "coordinates": [
          107.6062604,
          -6.9368241,
          0
        ]
      },
      "properties": {
        "name": "Pasar Tegalega",
        "styleUrl": "#8352",
        "styleHash": "47dc6d88"
      },
      "id": "8351"
    },
    {
      "type": "Feature",
      "geometry": {
        "type": "Point",
        "coordinates": [
          107.5955421,
          -6.9372977,
          0
        ]
      },
      "properties": {
        "name": "Rumah Sakit Immanuel B",
        "styleUrl": "#8357",
        "styleHash": "16a5d56d"
      },
      "id": "8356"
    },
    {
      "type": "Feature",
      "geometry": {
        "type": "Point",
        "coordinates": [
          107.5932469,
          -6.9458124,
          0
        ]
      },
      "properties": {
        "name": "Terminal Leuwipanjang",
        "styleUrl": "#8362",
        "styleHash": "7d238b47"
      },
      "id": "8361"
    },
    {
      "type": "Feature",
      "geometry": {
        "type": "LineString",
        "coordinates": [
          [
            107.6106152,
            -6.9069907,
            0
          ],
          [
            107.6106072,
            -6.9071903,
            0
          ],
          [
            107.6106086,
            -6.907565,
            0
          ],
          [
            107.6106156,
            -6.9082067,
            0
          ],
          [
            107.6106182,
            -6.908451,
            0
          ],
          [
            107.6106227,
            -6.9088624,
            0
          ],
          [
            107.610623,
            -6.9088887,
            0
          ],
          [
            107.6106269,
            -6.9091029,
            0
          ],
          [
            107.6106394,
            -6.909643,
            0
          ],
          [
            107.6106402,
            -6.9096655,
            0
          ],
          [
            107.6106425,
            -6.9097963,
            0
          ]
        ]
      },
      "properties": {
        "name": "Jalan Merdeka",
        "styleUrl": "#8367",
        "styleHash": "-72c29ae9",
        "stroke": "#2E3192",
        "stroke-opacity": 1,
        "stroke-width": 4
      },
      "id": "8366"
    },
    {
      "type": "Feature",
      "geometry": {
        "type": "LineString",
        "coordinates": [
          [
            107.6040992,
            -6.9208034,
            0
          ],
          [
            107.6040892,
            -6.9209261,
            0
          ],
          [
            107.6040142,
            -6.9219758,
            0
          ],
          [
            107.6040087,
            -6.9220583,
            0
          ],
          [
            107.6039434,
            -6.9230192,
            0
          ],
          [
            107.6039369,
            -6.9231152,
            0
          ]
        ]
      },
      "properties": {
        "name": "Jalan Otto Iskandardinata",
        "styleUrl": "#8371",
        "styleHash": "69f875e5",
        "stroke": "#2E3192",
        "stroke-opacity": 1,
        "stroke-width": 4
      },
      "id": "8370"
    },
    {
      "type": "Feature",
      "geometry": {
        "type": "LineString",
        "coordinates": [
          [
            107.6090123,
            -6.9139197,
            0
          ],
          [
            107.6090098,
            -6.9140203,
            0
          ],
          [
            107.6090062,
            -6.9141638,
            0
          ],
          [
            107.6089951,
            -6.9144714,
            0
          ],
          [
            107.608993,
            -6.9145426,
            0
          ],
          [
            107.6089869,
            -6.9147562,
            0
          ],
          [
            107.6089856,
            -6.9148401,
            0
          ],
          [
            107.608978,
            -6.9151089,
            0
          ],
          [
            107.6089778,
            -6.9151148,
            0
          ],
          [
            107.6089766,
            -6.9151405,
            0
          ],
          [
            107.6089755,
            -6.9151645,
            0
          ],
          [
            107.6089744,
            -6.91522,
            0
          ]
        ]
      },
      "properties": {
        "name": "Jalan Braga",
        "styleUrl": "#8375",
        "styleHash": "-49c0a623",
        "stroke": "#2E3192",
        "stroke-opacity": 1,
        "stroke-width": 4
      },
      "id": "8374"
    },
    {
      "type": "Feature",
      "geometry": {
        "type": "LineString",
        "coordinates": [
          [
            107.612608,
            -6.9002447,
            0
          ],
          [
            107.6125533,
            -6.9003606,
            0
          ],
          [
            107.6125155,
            -6.9004335,
            0
          ],
          [
            107.6122888,
            -6.9008712,
            0
          ],
          [
            107.6121775,
            -6.9011132,
            0
          ],
          [
            107.612171,
            -6.9011276,
            0
          ],
          [
            107.6121476,
            -6.9011798,
            0
          ],
          [
            107.6120722,
            -6.9013547,
            0
          ],
          [
            107.6120001,
            -6.9015424,
            0
          ],
          [
            107.6118836,
            -6.9018143,
            0
          ],
          [
            107.6118687,
            -6.9018492,
            0
          ],
          [
            107.6118167,
            -6.9019706,
            0
          ],
          [
            107.6116401,
            -6.9024166,
            0
          ],
          [
            107.6116031,
            -6.902518,
            0
          ],
          [
            107.6114717,
            -6.9028571,
            0
          ]
        ]
      },
      "properties": {
        "name": "Jalan Ir. H. Djuanda",
        "styleUrl": "#8379",
        "styleHash": "-34d1d260",
        "stroke": "#2E3192",
        "stroke-opacity": 1,
        "stroke-width": 4
      },
      "id": "8378"
    },
    {
      "type": "Feature",
      "geometry": {
        "type": "LineString",
        "coordinates": [
          [
            107.6174318,
            -6.8947388,
            0
          ],
          [
            107.6166325,
            -6.894853,
            0
          ],
          [
            107.6160516,
            -6.8948686,
            0
          ],
          [
            107.6157544,
            -6.8948594,
            0
          ],
          [
            107.6154198,
            -6.8948516,
            0
          ],
          [
            107.6153201,
            -6.8948492,
            0
          ],
          [
            107.6149218,
            -6.8948399,
            0
          ]
        ]
      },
      "properties": {
        "name": "Jalan Hasanudin",
        "styleUrl": "#8383",
        "styleHash": "-20beb15d",
        "stroke": "#2E3192",
        "stroke-opacity": 1,
        "stroke-width": 4
      },
      "id": "8382"
    },
    {
      "type": "Feature",
      "geometry": {
        "type": "LineString",
        "coordinates": [
          [
            107.6179955,
            -6.8925877,
            0
          ],
          [
            107.6180071,
            -6.8928368,
            0
          ],
          [
            107.6180341,
            -6.8934132,
            0
          ],
          [
            107.6180361,
            -6.8934568,
            0
          ]
        ]
      },
      "properties": {
        "name": "Jalan Dipatiukur",
        "styleUrl": "#8387",
        "styleHash": "2b88329b",
        "stroke": "#2E3192",
        "stroke-opacity": 1,
        "stroke-width": 4
      },
      "id": "8386"
    },
    {
      "type": "Feature",
      "geometry": {
        "type": "LineString",
        "coordinates": [
          [
            107.6045054,
            -6.9158364,
            0
          ],
          [
            107.6044945,
            -6.9159639,
            0
          ],
          [
            107.6044519,
            -6.9164303,
            0
          ],
          [
            107.6044104,
            -6.9168859,
            0
          ],
          [
            107.6043912,
            -6.9170712,
            0
          ],
          [
            107.6043506,
            -6.917436,
            0
          ]
        ]
      },
      "properties": {
        "name": "Jalan Otto Iskandardinata",
        "styleUrl": "#8391",
        "styleHash": "8434369",
        "stroke": "#2E3192",
        "stroke-opacity": 1,
        "stroke-width": 4
      },
      "id": "8390"
    },
    {
      "type": "Feature",
      "geometry": {
        "type": "LineString",
        "coordinates": [
          [
            107.6062529,
            -6.9369183,
            0
          ],
          [
            107.6062604,
            -6.9368241,
            0
          ],
          [
            107.6062815,
            -6.9365596,
            0
          ],
          [
            107.6062864,
            -6.9364942,
            0
          ],
          [
            107.6062951,
            -6.936362,
            0
          ],
          [
            107.6063018,
            -6.9362741,
            0
          ],
          [
            107.6063213,
            -6.9360167,
            0
          ],
          [
            107.6064216,
            -6.9346941,
            0
          ],
          [
            107.6064347,
            -6.9345209,
            0
          ],
          [
            107.6064644,
            -6.934149,
            0
          ],
          [
            107.6064804,
            -6.9339369,
            0
          ],
          [
            107.6065192,
            -6.9332778,
            0
          ],
          [
            107.6065207,
            -6.9332521,
            0
          ],
          [
            107.6065399,
            -6.9330001,
            0
          ],
          [
            107.6065556,
            -6.9327947,
            0
          ],
          [
            107.6066275,
            -6.9318519,
            0
          ]
        ]
      },
      "properties": {
        "name": "Jalan Mohammad Toha",
        "styleUrl": "#8395",
        "styleHash": "548a2761",
        "stroke": "#2E3192",
        "stroke-opacity": 1,
        "stroke-width": 4
      },
      "id": "8394"
    },
    {
      "type": "Feature",
      "geometry": {
        "type": "LineString",
        "coordinates": [
          [
            107.6103417,
            -6.9136128,
            0
          ],
          [
            107.6100125,
            -6.9139146,
            0
          ],
          [
            107.6099856,
            -6.9139284,
            0
          ],
          [
            107.6099494,
            -6.9139376,
            0
          ],
          [
            107.6098993,
            -6.9139397,
            0
          ],
          [
            107.6098166,
            -6.913931,
            0
          ],
          [
            107.6091994,
            -6.9138624,
            0
          ],
          [
            107.6090819,
            -6.9138528,
            0
          ]
        ]
      },
      "properties": {
        "name": "Jalan Perintis Kemerdekaan",
        "styleUrl": "#8399",
        "styleHash": "-4a30fb47",
        "stroke": "#2E3192",
        "stroke-opacity": 1,
        "stroke-width": 4
      },
      "id": "8398"
    },
    {
      "type": "Feature",
      "geometry": {
        "type": "LineString",
        "coordinates": [
          [
            107.5899199,
            -6.9452949,
            0
          ],
          [
            107.5899683,
            -6.9452286,
            0
          ],
          [
            107.5900352,
            -6.9451237,
            0
          ],
          [
            107.5901553,
            -6.9449353,
            0
          ],
          [
            107.5903058,
            -6.9446993,
            0
          ],
          [
            107.5904884,
            -6.944413,
            0
          ],
          [
            107.5905391,
            -6.9443334,
            0
          ],
          [
            107.5905904,
            -6.944253,
            0
          ],
          [
            107.590768,
            -6.9439758,
            0
          ],
          [
            107.5908061,
            -6.9439147,
            0
          ],
          [
            107.5908631,
            -6.9438253,
            0
          ],
          [
            107.5910269,
            -6.9435481,
            0
          ]
        ]
      },
      "properties": {
        "name": "Jalan Kyai Haji Wahid Hasyim",
        "styleUrl": "#8403",
        "styleHash": "-46275ef",
        "stroke": "#2E3192",
        "stroke-opacity": 1,
        "stroke-width": 4
      },
      "id": "8402"
    },
    {
      "type": "Feature",
      "geometry": {
        "type": "LineString",
        "coordinates": [
          [
            107.6180383,
            -6.8938553,
            0
          ],
          [
            107.6179971,
            -6.8939395,
            0
          ],
          [
            107.6178302,
            -6.8942182,
            0
          ],
          [
            107.6177817,
            -6.8942718,
            0
          ],
          [
            107.6176835,
            -6.8943336,
            0
          ]
        ]
      },
      "properties": {
        "name": "Jalan Dipatiukur",
        "styleUrl": "#8407",
        "styleHash": "47e46e09",
        "stroke": "#2E3192",
        "stroke-opacity": 1,
        "stroke-width": 4
      },
      "id": "8406"
    },
    {
      "type": "Feature",
      "geometry": {
        "type": "LineString",
        "coordinates": [
          [
            107.6088792,
            -6.9162786,
            0
          ],
          [
            107.6088195,
            -6.9162932,
            0
          ],
          [
            107.6088005,
            -6.9162985,
            0
          ],
          [
            107.6084574,
            -6.9162802,
            0
          ],
          [
            107.6083121,
            -6.9162616,
            0
          ],
          [
            107.6081984,
            -6.9162248,
            0
          ],
          [
            107.6080859,
            -6.9161743,
            0
          ],
          [
            107.6079612,
            -6.9161053,
            0
          ]
        ]
      },
      "properties": {
        "name": "Jalan Suniaraja",
        "styleUrl": "#8411",
        "styleHash": "249f7ed7",
        "stroke": "#2E3192",
        "stroke-opacity": 1,
        "stroke-width": 4
      },
      "id": "8410"
    },
    {
      "type": "Feature",
      "geometry": {
        "type": "LineString",
        "coordinates": [
          [
            107.6106097,
            -6.9099691,
            0
          ],
          [
            107.6106105,
            -6.9099991,
            0
          ],
          [
            107.6106114,
            -6.9100253,
            0
          ],
          [
            107.6106101,
            -6.9103764,
            0
          ],
          [
            107.6105511,
            -6.9114294,
            0
          ],
          [
            107.6105187,
            -6.9118534,
            0
          ],
          [
            107.6104548,
            -6.9125343,
            0
          ],
          [
            107.6104331,
            -6.9127657,
            0
          ],
          [
            107.6103417,
            -6.9136128,
            0
          ]
        ]
      },
      "properties": {
        "name": "Jalan Merdeka",
        "styleUrl": "#8415",
        "styleHash": "70e662cf",
        "stroke": "#2E3192",
        "stroke-opacity": 1,
        "stroke-width": 4
      },
      "id": "8414"
    },
    {
      "type": "Feature",
      "geometry": {
        "type": "LineString",
        "coordinates": [
          [
            107.6054273,
            -6.9316877,
            0
          ],
          [
            107.6059933,
            -6.9317677,
            0
          ],
          [
            107.6060299,
            -6.931773,
            0
          ],
          [
            107.6064553,
            -6.931835,
            0
          ],
          [
            107.6066275,
            -6.9318519,
            0
          ]
        ]
      },
      "properties": {
        "name": "Jalan Ibu Inggit Ganarsih",
        "styleUrl": "#8419",
        "styleHash": "-7a2ac96e",
        "stroke": "#2E3192",
        "stroke-opacity": 1,
        "stroke-width": 4
      },
      "id": "8418"
    },
    {
      "type": "Feature",
      "geometry": {
        "type": "LineString",
        "coordinates": [
          [
            107.6038724,
            -6.923931,
            0
          ],
          [
            107.6038504,
            -6.9245193,
            0
          ],
          [
            107.6037853,
            -6.9255254,
            0
          ],
          [
            107.6037807,
            -6.9256072,
            0
          ],
          [
            107.6036969,
            -6.9271072,
            0
          ],
          [
            107.6036918,
            -6.9271992,
            0
          ]
        ]
      },
      "properties": {
        "name": "Jalan Otto Iskandardinata",
        "styleUrl": "#8423",
        "styleHash": "-6617a86b",
        "stroke": "#2E3192",
        "stroke-opacity": 1,
        "stroke-width": 4
      },
      "id": "8422"
    },
    {
      "type": "Feature",
      "geometry": {
        "type": "LineString",
        "coordinates": [
          [
            107.6036918,
            -6.9271992,
            0
          ],
          [
            107.6036329,
            -6.9280445,
            0
          ],
          [
            107.6035987,
            -6.9285343,
            0
          ],
          [
            107.6035279,
            -6.9295503,
            0
          ],
          [
            107.6035002,
            -6.9299478,
            0
          ],
          [
            107.6034837,
            -6.930184,
            0
          ],
          [
            107.6034762,
            -6.930325,
            0
          ],
          [
            107.6034705,
            -6.9303736,
            0
          ],
          [
            107.6034661,
            -6.9304369,
            0
          ],
          [
            107.6034038,
            -6.9313301,
            0
          ],
          [
            107.603397,
            -6.9314278,
            0
          ]
        ]
      },
      "properties": {
        "name": "Jalan Otto Iskandardinata",
        "styleUrl": "#8427",
        "styleHash": "-19d0c473",
        "stroke": "#2E3192",
        "stroke-opacity": 1,
        "stroke-width": 4
      },
      "id": "8426"
    },
    {
      "type": "Feature",
      "geometry": {
        "type": "LineString",
        "coordinates": [
          [
            107.6040032,
            -6.9315065,
            0
          ],
          [
            107.6041575,
            -6.931522,
            0
          ],
          [
            107.6054273,
            -6.9316877,
            0
          ]
        ]
      },
      "properties": {
        "name": "Jalan Ibu Inggit Ganarsih",
        "styleUrl": "#8431",
        "styleHash": "-3d15b3a5",
        "stroke": "#2E3192",
        "stroke-opacity": 1,
        "stroke-width": 4
      },
      "id": "8430"
    },
    {
      "type": "Feature",
      "geometry": {
        "type": "LineString",
        "coordinates": [
          [
            107.6039369,
            -6.9231152,
            0
          ],
          [
            107.6039303,
            -6.9231867,
            0
          ]
        ]
      },
      "properties": {
        "name": "Jalan Otto Iskandardinata",
        "styleUrl": "#8435",
        "styleHash": "f313053",
        "stroke": "#2E3192",
        "stroke-opacity": 1,
        "stroke-width": 4
      },
      "id": "8434"
    },
    {
      "type": "Feature",
      "geometry": {
        "type": "LineString",
        "coordinates": [
          [
            107.5905372,
            -6.9458885,
            0
          ],
          [
            107.5906174,
            -6.9459184,
            0
          ],
          [
            107.5908186,
            -6.9459976,
            0
          ],
          [
            107.5909454,
            -6.9460471,
            0
          ],
          [
            107.5912869,
            -6.9461769,
            0
          ],
          [
            107.5915135,
            -6.946263,
            0
          ],
          [
            107.5919633,
            -6.946418,
            0
          ],
          [
            107.5920057,
            -6.9464327,
            0
          ]
        ]
      },
      "properties": {
        "name": "Jalan Soekarno-Hatta",
        "styleUrl": "#8439",
        "styleHash": "24200416",
        "stroke": "#2E3192",
        "stroke-opacity": 1,
        "stroke-width": 4
      },
      "id": "8438"
    },
    {
      "type": "Feature",
      "geometry": {
        "type": "LineString",
        "coordinates": [
          [
            107.6061633,
            -6.9376173,
            0
          ],
          [
            107.6060883,
            -6.937611,
            0
          ],
          [
            107.6060359,
            -6.9376063,
            0
          ],
          [
            107.6059365,
            -6.9375973,
            0
          ]
        ]
      },
      "properties": {
        "name": "Jalan Peta",
        "styleUrl": "#8443",
        "styleHash": "38332519",
        "stroke": "#2E3192",
        "stroke-opacity": 1,
        "stroke-width": 4
      },
      "id": "8442"
    },
    {
      "type": "Feature",
      "geometry": {
        "type": "LineString",
        "coordinates": [
          [
            107.6178188,
            -6.8923923,
            0
          ],
          [
            107.6179955,
            -6.8925877,
            0
          ]
        ]
      },
      "properties": {
        "name": "Jalan Dipatiukur",
        "styleUrl": "#8447",
        "styleHash": "-7b85f6ef",
        "stroke": "#2E3192",
        "stroke-opacity": 1,
        "stroke-width": 4
      },
      "id": "8446"
    },
    {
      "type": "Feature",
      "geometry": {
        "type": "LineString",
        "coordinates": [
          [
            107.613998,
            -6.8948183,
            0
          ],
          [
            107.6134866,
            -6.8948063,
            0
          ],
          [
            107.6134343,
            -6.8948051,
            0
          ],
          [
            107.6133011,
            -6.8948011,
            0
          ],
          [
            107.6130505,
            -6.8947991,
            0
          ],
          [
            107.6129884,
            -6.894795,
            0
          ]
        ]
      },
      "properties": {
        "name": "Jalan Hasanudin",
        "styleUrl": "#8451",
        "styleHash": "613519df",
        "stroke": "#2E3192",
        "stroke-opacity": 1,
        "stroke-width": 4
      },
      "id": "8450"
    },
    {
      "type": "Feature",
      "geometry": {
        "type": "LineString",
        "coordinates": [
          [
            107.6129884,
            -6.894795,
            0
          ],
          [
            107.6129816,
            -6.8949324,
            0
          ],
          [
            107.6129506,
            -6.8955212,
            0
          ],
          [
            107.6129301,
            -6.8959096,
            0
          ],
          [
            107.6128583,
            -6.8972728,
            0
          ],
          [
            107.6128527,
            -6.8974296,
            0
          ],
          [
            107.6128497,
            -6.897514,
            0
          ],
          [
            107.6128447,
            -6.8976528,
            0
          ],
          [
            107.6128328,
            -6.8979831,
            0
          ],
          [
            107.612814,
            -6.8984249,
            0
          ],
          [
            107.612813,
            -6.8984478,
            0
          ],
          [
            107.6128127,
            -6.8984541,
            0
          ],
          [
            107.6128094,
            -6.898525,
            0
          ],
          [
            107.6128004,
            -6.8987219,
            0
          ]
        ]
      },
      "properties": {
        "name": "Jalan Ir. H. Djuanda",
        "styleUrl": "#8455",
        "styleHash": "-52840229",
        "stroke": "#2E3192",
        "stroke-opacity": 1,
        "stroke-width": 4
      },
      "id": "8454"
    },
    {
      "type": "Feature",
      "geometry": {
        "type": "LineString",
        "coordinates": [
          [
            107.6127772,
            -6.8990757,
            0
          ],
          [
            107.6127758,
            -6.8991421,
            0
          ],
          [
            107.6127734,
            -6.8991965,
            0
          ],
          [
            107.6127597,
            -6.8995115,
            0
          ],
          [
            107.6127453,
            -6.8998447,
            0
          ],
          [
            107.612733,
            -6.8999263,
            0
          ],
          [
            107.612698,
            -6.9000399,
            0
          ],
          [
            107.61268,
            -6.9000809,
            0
          ],
          [
            107.612608,
            -6.9002447,
            0
          ]
        ]
      },
      "properties": {
        "name": "Jalan Ir. H. Djuanda",
        "styleUrl": "#8459",
        "styleHash": "-3d952e66",
        "stroke": "#2E3192",
        "stroke-opacity": 1,
        "stroke-width": 4
      },
      "id": "8458"
    },
    {
      "type": "Feature",
      "geometry": {
        "type": "LineString",
        "coordinates": [
          [
            107.6042904,
            -6.9182779,
            0
          ],
          [
            107.6042559,
            -6.9187767,
            0
          ],
          [
            107.6042335,
            -6.9191016,
            0
          ],
          [
            107.6042248,
            -6.9192265,
            0
          ],
          [
            107.6042084,
            -6.9194647,
            0
          ],
          [
            107.6041935,
            -6.9196695,
            0
          ],
          [
            107.6041829,
            -6.9198332,
            0
          ],
          [
            107.6041111,
            -6.9206576,
            0
          ],
          [
            107.6041071,
            -6.9207069,
            0
          ],
          [
            107.6040992,
            -6.9208034,
            0
          ]
        ]
      },
      "properties": {
        "name": "Jalan Otto Iskandardinata",
        "styleUrl": "#8463",
        "styleHash": "-29820d63",
        "stroke": "#2E3192",
        "stroke-opacity": 1,
        "stroke-width": 4
      },
      "id": "8462"
    },
    {
      "type": "Feature",
      "geometry": {
        "type": "LineString",
        "coordinates": [
          [
            107.5946801,
            -6.9470993,
            0
          ],
          [
            107.5949015,
            -6.9470904,
            0
          ],
          [
            107.5949654,
            -6.9470873,
            0
          ],
          [
            107.5949874,
            -6.9470844,
            0
          ],
          [
            107.5950189,
            -6.9470765,
            0
          ],
          [
            107.5950591,
            -6.9470659,
            0
          ],
          [
            107.5950873,
            -6.9470551,
            0
          ],
          [
            107.5951121,
            -6.9470451,
            0
          ],
          [
            107.5951365,
            -6.9470303,
            0
          ],
          [
            107.5951489,
            -6.9470195,
            0
          ],
          [
            107.5951597,
            -6.9470058,
            0
          ],
          [
            107.5951778,
            -6.9469812,
            0
          ],
          [
            107.5951852,
            -6.9469692,
            0
          ],
          [
            107.595202,
            -6.9469407,
            0
          ],
          [
            107.5952184,
            -6.9469031,
            0
          ]
        ]
      },
      "properties": {
        "name": "Route Segment",
        "styleUrl": "#8467",
        "styleHash": "22c4d695",
        "stroke": "#2E3192",
        "stroke-opacity": 1,
        "stroke-width": 4
      },
      "id": "8466"
    },
    {
      "type": "Feature",
      "geometry": {
        "type": "LineString",
        "coordinates": [
          [
            107.5910269,
            -6.9435481,
            0
          ],
          [
            107.5910603,
            -6.9434929,
            0
          ],
          [
            107.5910903,
            -6.9434463,
            0
          ],
          [
            107.5911028,
            -6.9434233,
            0
          ],
          [
            107.5911203,
            -6.9433931,
            0
          ],
          [
            107.5912147,
            -6.9432302,
            0
          ],
          [
            107.591257,
            -6.9431573,
            0
          ],
          [
            107.5913003,
            -6.9430856,
            0
          ],
          [
            107.5913435,
            -6.9430138,
            0
          ],
          [
            107.5914686,
            -6.9428144,
            0
          ],
          [
            107.5916513,
            -6.9425217,
            0
          ],
          [
            107.5918451,
            -6.942203,
            0
          ],
          [
            107.5918647,
            -6.9421708,
            0
          ],
          [
            107.59192,
            -6.9420837,
            0
          ],
          [
            107.5920724,
            -6.9418438,
            0
          ],
          [
            107.5922389,
            -6.9415903,
            0
          ],
          [
            107.5924641,
            -6.9412448,
            0
          ],
          [
            107.5930896,
            -6.9402979,
            0
          ],
          [
            107.59314,
            -6.9402168,
            0
          ],
          [
            107.5932148,
            -6.9400962,
            0
          ],
          [
            107.5932356,
            -6.9400628,
            0
          ],
          [
            107.5933094,
            -6.939944,
            0
          ],
          [
            107.5934404,
            -6.9397331,
            0
          ],
          [
            107.5936005,
            -6.9394752,
            0
          ],
          [
            107.5937688,
            -6.9391642,
            0
          ],
          [
            107.5939092,
            -6.9389121,
            0
          ],
          [
            107.5939987,
            -6.938752,
            0
          ],
          [
            107.5940814,
            -6.9386042,
            0
          ],
          [
            107.5941015,
            -6.9385696,
            0
          ],
          [
            107.594148,
            -6.9384872,
            0
          ],
          [
            107.594204,
            -6.9383881,
            0
          ],
          [
            107.594524,
            -6.9378129,
            0
          ],
          [
            107.5945872,
            -6.9376992,
            0
          ],
          [
            107.5946221,
            -6.9376377,
            0
          ],
          [
            107.5946542,
            -6.9375847,
            0
          ],
          [
            107.5948299,
            -6.9373141,
            0
          ]
        ]
      },
      "properties": {
        "name": "Jalan Kyai Haji Wahid Hasyim",
        "styleUrl": "#8471",
        "styleHash": "-80189d",
        "stroke": "#2E3192",
        "stroke-opacity": 1,
        "stroke-width": 4
      },
      "id": "8470"
    },
    {
      "type": "Feature",
      "geometry": {
        "type": "LineString",
        "coordinates": [
          [
            107.6180361,
            -6.8934568,
            0
          ],
          [
            107.6180362,
            -6.8934861,
            0
          ],
          [
            107.6180383,
            -6.8938553,
            0
          ]
        ]
      },
      "properties": {
        "name": "Jalan Dipatiukur",
        "styleUrl": "#8475",
        "styleHash": "4bc6cb5b",
        "stroke": "#2E3192",
        "stroke-opacity": 1,
        "stroke-width": 4
      },
      "id": "8474"
    },
    {
      "type": "Feature",
      "geometry": {
        "type": "LineString",
        "coordinates": [
          [
            107.6061274,
            -6.9154985,
            0
          ],
          [
            107.6055816,
            -6.9156321,
            0
          ],
          [
            107.6054049,
            -6.9156698,
            0
          ],
          [
            107.605226,
            -6.9157035,
            0
          ],
          [
            107.6046673,
            -6.9158052,
            0
          ],
          [
            107.6045054,
            -6.9158364,
            0
          ]
        ]
      },
      "properties": {
        "name": "Jalan Suniaraja",
        "styleUrl": "#8479",
        "styleHash": "60b59f1e",
        "stroke": "#2E3192",
        "stroke-opacity": 1,
        "stroke-width": 4
      },
      "id": "8478"
    },
    {
      "type": "Feature",
      "geometry": {
        "type": "LineString",
        "coordinates": [
          [
            107.5971376,
            -6.937801,
            0
          ],
          [
            107.5970548,
            -6.9377924,
            0
          ]
        ]
      },
      "properties": {
        "name": "Jalan Peta",
        "styleUrl": "#8483",
        "styleHash": "74c8c021",
        "stroke": "#2E3192",
        "stroke-opacity": 1,
        "stroke-width": 4
      },
      "id": "8482"
    },
    {
      "type": "Feature",
      "geometry": {
        "type": "LineString",
        "coordinates": [
          [
            107.6030687,
            -6.9373365,
            0
          ],
          [
            107.6029953,
            -6.9373294,
            0
          ]
        ]
      },
      "properties": {
        "name": "Jalan Peta",
        "styleUrl": "#8487",
        "styleHash": "-3ef05be7",
        "stroke": "#2E3192",
        "stroke-opacity": 1,
        "stroke-width": 4
      },
      "id": "8486"
    },
    {
      "type": "Feature",
      "geometry": {
        "type": "LineString",
        "coordinates": [
          [
            107.6176835,
            -6.8943336,
            0
          ],
          [
            107.6175117,
            -6.8946008,
            0
          ],
          [
            107.6174318,
            -6.8947388,
            0
          ]
        ]
      },
      "properties": {
        "name": "Jalan Dipatiukur",
        "styleUrl": "#8491",
        "styleHash": "-62354b19",
        "stroke": "#2E3192",
        "stroke-opacity": 1,
        "stroke-width": 4
      },
      "id": "8490"
    },
    {
      "type": "Feature",
      "geometry": {
        "type": "LineString",
        "coordinates": [
          [
            107.604469,
            -6.9374642,
            0
          ],
          [
            107.6043625,
            -6.9374545,
            0
          ],
          [
            107.6036889,
            -6.9373934,
            0
          ],
          [
            107.6032992,
            -6.937358,
            0
          ],
          [
            107.6031703,
            -6.9373463,
            0
          ],
          [
            107.6030687,
            -6.9373365,
            0
          ]
        ]
      },
      "properties": {
        "name": "Jalan Peta",
        "styleUrl": "#8495",
        "styleHash": "-15ee6721",
        "stroke": "#2E3192",
        "stroke-opacity": 1,
        "stroke-width": 4
      },
      "id": "8494"
    },
    {
      "type": "Feature",
      "geometry": {
        "type": "LineString",
        "coordinates": [
          [
            107.6029953,
            -6.9373294,
            0
          ],
          [
            107.6028855,
            -6.9373188,
            0
          ],
          [
            107.6028524,
            -6.937315,
            0
          ],
          [
            107.602016,
            -6.9372409,
            0
          ],
          [
            107.6019146,
            -6.9372385,
            0
          ],
          [
            107.601703,
            -6.9372304,
            0
          ],
          [
            107.6014696,
            -6.937233,
            0
          ],
          [
            107.6010236,
            -6.9372742,
            0
          ],
          [
            107.6000125,
            -6.9374518,
            0
          ],
          [
            107.5999005,
            -6.9374746,
            0
          ],
          [
            107.5994727,
            -6.9375618,
            0
          ]
        ]
      },
      "properties": {
        "name": "Jalan Peta",
        "styleUrl": "#8499",
        "styleHash": "4b567637",
        "stroke": "#2E3192",
        "stroke-opacity": 1,
        "stroke-width": 4
      },
      "id": "8498"
    },
    {
      "type": "Feature",
      "geometry": {
        "type": "LineString",
        "coordinates": [
          [
            107.6073065,
            -6.9155229,
            0
          ],
          [
            107.607104,
            -6.9154966,
            0
          ]
        ]
      },
      "properties": {
        "name": "Jalan Suniaraja",
        "styleUrl": "#8503",
        "styleHash": "-6edb0471",
        "stroke": "#2E3192",
        "stroke-opacity": 1,
        "stroke-width": 4
      },
      "id": "8502"
    },
    {
      "type": "Feature",
      "geometry": {
        "type": "LineString",
        "coordinates": [
          [
            107.607104,
            -6.9154966,
            0
          ],
          [
            107.6069686,
            -6.9154807,
            0
          ],
          [
            107.6066681,
            -6.915471,
            0
          ],
          [
            107.6065499,
            -6.9154703,
            0
          ]
        ]
      },
      "properties": {
        "name": "Jalan Suniaraja",
        "styleUrl": "#8507",
        "styleHash": "-22942079",
        "stroke": "#2E3192",
        "stroke-opacity": 1,
        "stroke-width": 4
      },
      "id": "8506"
    },
    {
      "type": "Feature",
      "geometry": {
        "type": "LineString",
        "coordinates": [
          [
            107.5952296,
            -6.9371632,
            0
          ],
          [
            107.5951614,
            -6.9371577,
            0
          ],
          [
            107.5950932,
            -6.9371631,
            0
          ],
          [
            107.5950268,
            -6.9371793,
            0
          ],
          [
            107.5949529,
            -6.9372115,
            0
          ],
          [
            107.5948865,
            -6.937257,
            0
          ],
          [
            107.5948299,
            -6.9373141,
            0
          ]
        ]
      },
      "properties": {
        "name": "Route Segment",
        "styleUrl": "#8511",
        "styleHash": "-45d90fab",
        "stroke": "#2E3192",
        "stroke-opacity": 1,
        "stroke-width": 4
      },
      "id": "8510"
    },
    {
      "type": "Feature",
      "geometry": {
        "type": "LineString",
        "coordinates": [
          [
            107.5994727,
            -6.9375618,
            0
          ],
          [
            107.5993708,
            -6.9375805,
            0
          ]
        ]
      },
      "properties": {
        "name": "Jalan Peta",
        "styleUrl": "#8515",
        "styleHash": "66dd44d",
        "stroke": "#2E3192",
        "stroke-opacity": 1,
        "stroke-width": 4
      },
      "id": "8514"
    },
    {
      "type": "Feature",
      "geometry": {
        "type": "LineString",
        "coordinates": [
          [
            107.5993708,
            -6.9375805,
            0
          ],
          [
            107.5988884,
            -6.9376814,
            0
          ],
          [
            107.5984434,
            -6.9377562,
            0
          ],
          [
            107.5983423,
            -6.9377695,
            0
          ],
          [
            107.5980891,
            -6.9378047,
            0
          ],
          [
            107.5978299,
            -6.9378174,
            0
          ],
          [
            107.5975831,
            -6.9378255,
            0
          ],
          [
            107.5972383,
            -6.9378114,
            0
          ],
          [
            107.5971376,
            -6.937801,
            0
          ]
        ]
      },
      "properties": {
        "name": "Jalan Peta",
        "styleUrl": "#8519",
        "styleHash": "1b5ca810",
        "stroke": "#2E3192",
        "stroke-opacity": 1,
        "stroke-width": 4
      },
      "id": "8518"
    },
    {
      "type": "Feature",
      "geometry": {
        "type": "LineString",
        "coordinates": [
          [
            107.6062346,
            -6.9375336,
            0
          ],
          [
            107.606228,
            -6.9376212,
            0
          ]
        ]
      },
      "properties": {
        "name": "Jalan Mohammad Toha",
        "styleUrl": "#8523",
        "styleHash": "2f6fc913",
        "stroke": "#2E3192",
        "stroke-opacity": 1,
        "stroke-width": 4
      },
      "id": "8522"
    },
    {
      "type": "Feature",
      "geometry": {
        "type": "LineString",
        "coordinates": [
          [
            107.6128004,
            -6.8987219,
            0
          ],
          [
            107.6127945,
            -6.8988445,
            0
          ]
        ]
      },
      "properties": {
        "name": "Jalan Ir. H. Djuanda",
        "styleUrl": "#8527",
        "styleHash": "7bb6ad0b",
        "stroke": "#2E3192",
        "stroke-opacity": 1,
        "stroke-width": 4
      },
      "id": "8526"
    },
    {
      "type": "Feature",
      "geometry": {
        "type": "LineString",
        "coordinates": [
          [
            107.6127945,
            -6.8988445,
            0
          ],
          [
            107.6127772,
            -6.8990757,
            0
          ]
        ]
      },
      "properties": {
        "name": "Jalan Ir. H. Djuanda",
        "styleUrl": "#8531",
        "styleHash": "5871bdd9",
        "stroke": "#2E3192",
        "stroke-opacity": 1,
        "stroke-width": 4
      },
      "id": "8530"
    },
    {
      "type": "Feature",
      "geometry": {
        "type": "LineString",
        "coordinates": [
          [
            107.5970548,
            -6.9377924,
            0
          ],
          [
            107.5970082,
            -6.9377848,
            0
          ],
          [
            107.5966811,
            -6.9377315,
            0
          ],
          [
            107.5963307,
            -6.9376489,
            0
          ],
          [
            107.5961367,
            -6.9375778,
            0
          ],
          [
            107.5959549,
            -6.937498,
            0
          ],
          [
            107.5955421,
            -6.9372977,
            0
          ],
          [
            107.5954936,
            -6.9372742,
            0
          ]
        ]
      },
      "properties": {
        "name": "Jalan Peta",
        "styleUrl": "#8535",
        "styleHash": "-5b475e2f",
        "stroke": "#2E3192",
        "stroke-opacity": 1,
        "stroke-width": 4
      },
      "id": "8534"
    },
    {
      "type": "Feature",
      "geometry": {
        "type": "LineString",
        "coordinates": [
          [
            107.6065499,
            -6.9154703,
            0
          ],
          [
            107.6063683,
            -6.9154661,
            0
          ],
          [
            107.6061274,
            -6.9154985,
            0
          ]
        ]
      },
      "properties": {
        "name": "Jalan Suniaraja",
        "styleUrl": "#8539",
        "styleHash": "-46588a6c",
        "stroke": "#2E3192",
        "stroke-opacity": 1,
        "stroke-width": 4
      },
      "id": "8538"
    },
    {
      "type": "Feature",
      "geometry": {
        "type": "LineString",
        "coordinates": [
          [
            107.603397,
            -6.9314278,
            0
          ],
          [
            107.603453,
            -6.9314349,
            0
          ],
          [
            107.6039218,
            -6.9314959,
            0
          ],
          [
            107.6040032,
            -6.9315065,
            0
          ]
        ]
      },
      "properties": {
        "name": "Jalan Ibu Inggit Ganarsih",
        "styleUrl": "#8543",
        "styleHash": "-32456969",
        "stroke": "#2E3192",
        "stroke-opacity": 1,
        "stroke-width": 4
      },
      "id": "8542"
    },
    {
      "type": "Feature",
      "geometry": {
        "type": "LineString",
        "coordinates": [
          [
            107.606251,
            -6.9371233,
            0
          ],
          [
            107.606247,
            -6.9372812,
            0
          ],
          [
            107.6062389,
            -6.9374421,
            0
          ],
          [
            107.6062346,
            -6.9375336,
            0
          ]
        ]
      },
      "properties": {
        "name": "Jalan Mohammad Toha",
        "styleUrl": "#8547",
        "styleHash": "1a017a8f",
        "stroke": "#2E3192",
        "stroke-opacity": 1,
        "stroke-width": 4
      },
      "id": "8546"
    },
    {
      "type": "Feature",
      "geometry": {
        "type": "LineString",
        "coordinates": [
          [
            107.6106294,
            -6.9054999,
            0
          ],
          [
            107.610631,
            -6.905856,
            0
          ],
          [
            107.6106299,
            -6.9065922,
            0
          ],
          [
            107.6106282,
            -6.9067845,
            0
          ]
        ]
      },
      "properties": {
        "name": "Jalan Ir. H. Djuanda",
        "styleUrl": "#8551",
        "styleHash": "-94374a3",
        "stroke": "#2E3192",
        "stroke-opacity": 1,
        "stroke-width": 4
      },
      "id": "8550"
    },
    {
      "type": "Feature",
      "geometry": {
        "type": "LineString",
        "coordinates": [
          [
            107.6106829,
            -6.9048204,
            0
          ],
          [
            107.6106503,
            -6.9050446,
            0
          ],
          [
            107.610631,
            -6.9052722,
            0
          ],
          [
            107.6106294,
            -6.9054999,
            0
          ]
        ]
      },
      "properties": {
        "name": "Jalan Ir. H. Djuanda",
        "styleUrl": "#8555",
        "styleHash": "43036f55",
        "stroke": "#2E3192",
        "stroke-opacity": 1,
        "stroke-width": 4
      },
      "id": "8554"
    },
    {
      "type": "Feature",
      "geometry": {
        "type": "LineString",
        "coordinates": [
          [
            107.6038803,
            -6.9238302,
            0
          ],
          [
            107.6038724,
            -6.923931,
            0
          ]
        ]
      },
      "properties": {
        "name": "Jalan Otto Iskandardinata",
        "styleUrl": "#8559",
        "styleHash": "57f24318",
        "stroke": "#2E3192",
        "stroke-opacity": 1,
        "stroke-width": 4
      },
      "id": "8558"
    },
    {
      "type": "Feature",
      "geometry": {
        "type": "LineString",
        "coordinates": [
          [
            107.6089588,
            -6.9159458,
            0
          ],
          [
            107.60896,
            -6.9160318,
            0
          ],
          [
            107.608966,
            -6.916108,
            0
          ],
          [
            107.6089644,
            -6.916155,
            0
          ],
          [
            107.6089606,
            -6.9161782,
            0
          ],
          [
            107.608954,
            -6.9162093,
            0
          ],
          [
            107.6089283,
            -6.9162468,
            0
          ],
          [
            107.6088792,
            -6.9162786,
            0
          ]
        ]
      },
      "properties": {
        "name": "Jalan Braga",
        "styleUrl": "#8563",
        "styleHash": "6c05641b",
        "stroke": "#2E3192",
        "stroke-opacity": 1,
        "stroke-width": 4
      },
      "id": "8562"
    },
    {
      "type": "Feature",
      "geometry": {
        "type": "LineString",
        "coordinates": [
          [
            107.6090819,
            -6.9138528,
            0
          ],
          [
            107.6090782,
            -6.9138738,
            0
          ],
          [
            107.6090681,
            -6.9138926,
            0
          ],
          [
            107.6090528,
            -6.9139075,
            0
          ],
          [
            107.6090335,
            -6.9139171,
            0
          ],
          [
            107.6090123,
            -6.9139197,
            0
          ]
        ]
      },
      "properties": {
        "name": "Jalan Perintis Kemerdekaan",
        "styleUrl": "#8567",
        "styleHash": "-47b3b7ed",
        "stroke": "#2E3192",
        "stroke-opacity": 1,
        "stroke-width": 4
      },
      "id": "8566"
    },
    {
      "type": "Feature",
      "geometry": {
        "type": "LineString",
        "coordinates": [
          [
            107.610922,
            -6.9042178,
            0
          ],
          [
            107.6107175,
            -6.9047082,
            0
          ],
          [
            107.6106829,
            -6.9048204,
            0
          ]
        ]
      },
      "properties": {
        "name": "Jalan Ir. H. Djuanda",
        "styleUrl": "#8571",
        "styleHash": "-6af8a71f",
        "stroke": "#2E3192",
        "stroke-opacity": 1,
        "stroke-width": 4
      },
      "id": "8570"
    },
    {
      "type": "Feature",
      "geometry": {
        "type": "LineString",
        "coordinates": [
          [
            107.606228,
            -6.9376212,
            0
          ],
          [
            107.6061633,
            -6.9376173,
            0
          ]
        ]
      },
      "properties": {
        "name": "Jalan BKR",
        "styleUrl": "#8575",
        "styleHash": "-1eb1c327",
        "stroke": "#2E3192",
        "stroke-opacity": 1,
        "stroke-width": 4
      },
      "id": "8574"
    },
    {
      "type": "Feature",
      "geometry": {
        "type": "LineString",
        "coordinates": [
          [
            107.5952184,
            -6.9469031,
            0
          ],
          [
            107.5952459,
            -6.9466699,
            0
          ],
          [
            107.5952669,
            -6.9462117,
            0
          ],
          [
            107.595271,
            -6.9461694,
            0
          ],
          [
            107.5952757,
            -6.9461131,
            0
          ],
          [
            107.5952807,
            -6.9460535,
            0
          ],
          [
            107.5952859,
            -6.9459928,
            0
          ],
          [
            107.595295,
            -6.9458786,
            0
          ]
        ]
      },
      "properties": {
        "name": "Jalan Leuwi Panjang",
        "styleUrl": "#8579",
        "styleHash": "-9c2ef64",
        "stroke": "#2E3192",
        "stroke-opacity": 1,
        "stroke-width": 4
      },
      "id": "8578"
    },
    {
      "type": "Feature",
      "geometry": {
        "type": "LineString",
        "coordinates": [
          [
            107.6106425,
            -6.9097963,
            0
          ],
          [
            107.6106442,
            -6.909869,
            0
          ],
          [
            107.6106097,
            -6.9099691,
            0
          ]
        ]
      },
      "properties": {
        "name": "Jalan Merdeka",
        "styleUrl": "#8583",
        "styleHash": "a50319f",
        "stroke": "#2E3192",
        "stroke-opacity": 1,
        "stroke-width": 4
      },
      "id": "8582"
    },
    {
      "type": "Feature",
      "geometry": {
        "type": "LineString",
        "coordinates": [
          [
            107.6079612,
            -6.9161053,
            0
          ],
          [
            107.6079249,
            -6.9160698,
            0
          ],
          [
            107.6077084,
            -6.9158299,
            0
          ]
        ]
      },
      "properties": {
        "name": "Jalan Suniaraja",
        "styleUrl": "#8587",
        "styleHash": "56971597",
        "stroke": "#2E3192",
        "stroke-opacity": 1,
        "stroke-width": 4
      },
      "id": "8586"
    },
    {
      "type": "Feature",
      "geometry": {
        "type": "LineString",
        "coordinates": [
          [
            107.5954936,
            -6.9372742,
            0
          ],
          [
            107.5953437,
            -6.9372112,
            0
          ],
          [
            107.5952296,
            -6.9371632,
            0
          ]
        ]
      },
      "properties": {
        "name": "Jalan Peta",
        "styleUrl": "#8591",
        "styleHash": "33522665",
        "stroke": "#2E3192",
        "stroke-opacity": 1,
        "stroke-width": 4
      },
      "id": "8590"
    },
    {
      "type": "Feature",
      "geometry": {
        "type": "LineString",
        "coordinates": [
          [
            107.6043506,
            -6.917436,
            0
          ],
          [
            107.6042904,
            -6.9182779,
            0
          ]
        ]
      },
      "properties": {
        "name": "Jalan Otto Iskandardinata",
        "styleUrl": "#8595",
        "styleHash": "7f990a5d",
        "stroke": "#2E3192",
        "stroke-opacity": 1,
        "stroke-width": 4
      },
      "id": "8594"
    },
    {
      "type": "Feature",
      "geometry": {
        "type": "LineString",
        "coordinates": [
          [
            107.6073799,
            -6.9155298,
            0
          ],
          [
            107.6073065,
            -6.9155229,
            0
          ]
        ]
      },
      "properties": {
        "name": "Jalan Suniaraja",
        "styleUrl": "#8599",
        "styleHash": "-1f22184b",
        "stroke": "#2E3192",
        "stroke-opacity": 1,
        "stroke-width": 4
      },
      "id": "8598"
    },
    {
      "type": "Feature",
      "geometry": {
        "type": "LineString",
        "coordinates": [
          [
            107.6077084,
            -6.9158299,
            0
          ],
          [
            107.6074943,
            -6.9155493,
            0
          ]
        ]
      },
      "properties": {
        "name": "Jalan Suniaraja",
        "styleUrl": "#8603",
        "styleHash": "26ac6d0d",
        "stroke": "#2E3192",
        "stroke-opacity": 1,
        "stroke-width": 4
      },
      "id": "8602"
    },
    {
      "type": "Feature",
      "geometry": {
        "type": "LineString",
        "coordinates": [
          [
            107.6074943,
            -6.9155493,
            0
          ],
          [
            107.6073799,
            -6.9155298,
            0
          ]
        ]
      },
      "properties": {
        "name": "Jalan Suniaraja",
        "styleUrl": "#8607",
        "styleHash": "72f35105",
        "stroke": "#2E3192",
        "stroke-opacity": 1,
        "stroke-width": 4
      },
      "id": "8606"
    },
    {
      "type": "Feature",
      "geometry": {
        "type": "LineString",
        "coordinates": [
          [
            107.6059365,
            -6.9375973,
            0
          ],
          [
            107.6055097,
            -6.9375586,
            0
          ],
          [
            107.604578,
            -6.9374741,
            0
          ],
          [
            107.604469,
            -6.9374642,
            0
          ]
        ]
      },
      "properties": {
        "name": "Jalan Peta",
        "styleUrl": "#8611",
        "styleHash": "4fae61d3",
        "stroke": "#2E3192",
        "stroke-opacity": 1,
        "stroke-width": 4
      },
      "id": "8610"
    },
    {
      "type": "Feature",
      "geometry": {
        "type": "LineString",
        "coordinates": [
          [
            107.6114717,
            -6.9028571,
            0
          ],
          [
            107.610922,
            -6.9042178,
            0
          ]
        ]
      },
      "properties": {
        "name": "Jalan Ir. H. Djuanda",
        "styleUrl": "#8615",
        "styleHash": "-640aba35",
        "stroke": "#2E3192",
        "stroke-opacity": 1,
        "stroke-width": 4
      },
      "id": "8614"
    },
    {
      "type": "Feature",
      "geometry": {
        "type": "LineString",
        "coordinates": [
          [
            107.6062529,
            -6.9369183,
            0
          ],
          [
            107.6062607,
            -6.9369403,
            0
          ],
          [
            107.6062612,
            -6.9369586,
            0
          ],
          [
            107.606251,
            -6.9371233,
            0
          ]
        ]
      },
      "properties": {
        "name": "Jalan Mohammad Toha",
        "styleUrl": "#8619",
        "styleHash": "-4f1be672",
        "stroke": "#2E3192",
        "stroke-opacity": 1,
        "stroke-width": 4
      },
      "id": "8618"
    },
    {
      "type": "Feature",
      "geometry": {
        "type": "LineString",
        "coordinates": [
          [
            107.6039303,
            -6.9231867,
            0
          ],
          [
            107.6038803,
            -6.9238302,
            0
          ]
        ]
      },
      "properties": {
        "name": "Jalan Otto Iskandardinata",
        "styleUrl": "#8623",
        "styleHash": "-3b08c56f",
        "stroke": "#2E3192",
        "stroke-opacity": 1,
        "stroke-width": 4
      },
      "id": "8622"
    },
    {
      "type": "Feature",
      "geometry": {
        "type": "LineString",
        "coordinates": [
          [
            107.5937098,
            -6.9458851,
            0
          ],
          [
            107.5932469,
            -6.9458124,
            0
          ]
        ]
      },
      "properties": {
        "name": "Jalur Bus Kota",
        "styleUrl": "#8627",
        "styleHash": "113e1e89",
        "stroke": "#2E3192",
        "stroke-opacity": 1,
        "stroke-width": 4
      },
      "id": "8626"
    },
    {
      "type": "Feature",
      "geometry": {
        "type": "LineString",
        "coordinates": [
          [
            107.5898972,
            -6.9453598,
            0
          ],
          [
            107.5898924,
            -6.9454526,
            0
          ],
          [
            107.5898937,
            -6.9455017,
            0
          ],
          [
            107.5899025,
            -6.94555,
            0
          ],
          [
            107.5899197,
            -6.9455844,
            0
          ],
          [
            107.5899482,
            -6.9456283,
            0
          ],
          [
            107.5899816,
            -6.945652,
            0
          ]
        ]
      },
      "properties": {
        "name": "Route Segment",
        "styleUrl": "#8631",
        "styleHash": "-1206d0a9",
        "stroke": "#2E3192",
        "stroke-opacity": 1,
        "stroke-width": 4
      },
      "id": "8630"
    },
    {
      "type": "Feature",
      "geometry": {
        "type": "LineString",
        "coordinates": [
          [
            107.595295,
            -6.9458786,
            0
          ],
          [
            107.5947542,
            -6.9458158,
            0
          ]
        ]
      },
      "properties": {
        "name": "Jalur Masuk Bus",
        "styleUrl": "#8635",
        "styleHash": "3a40134f",
        "stroke": "#2E3192",
        "stroke-opacity": 1,
        "stroke-width": 4
      },
      "id": "8634"
    },
    {
      "type": "Feature",
      "geometry": {
        "type": "LineString",
        "coordinates": [
          [
            107.5944877,
            -6.9457804,
            0
          ],
          [
            107.5940855,
            -6.9457238,
            0
          ]
        ]
      },
      "properties": {
        "name": "Jalur Bus Kota dan AKAP",
        "styleUrl": "#8639",
        "styleHash": "4f2ee712",
        "stroke": "#2E3192",
        "stroke-opacity": 1,
        "stroke-width": 4
      },
      "id": "8638"
    },
    {
      "type": "Feature",
      "geometry": {
        "type": "LineString",
        "coordinates": [
          [
            107.6089744,
            -6.91522,
            0
          ],
          [
            107.6089735,
            -6.9152622,
            0
          ],
          [
            107.6089588,
            -6.9159458,
            0
          ]
        ]
      },
      "properties": {
        "name": "Jalan Braga",
        "styleUrl": "#8643",
        "styleHash": "63420815",
        "stroke": "#2E3192",
        "stroke-opacity": 1,
        "stroke-width": 4
      },
      "id": "8642"
    },
    {
      "type": "Feature",
      "geometry": {
        "type": "LineString",
        "coordinates": [
          [
            107.5920057,
            -6.9464327,
            0
          ],
          [
            107.5922205,
            -6.9465024,
            0
          ],
          [
            107.5923591,
            -6.9465464,
            0
          ],
          [
            107.5924183,
            -6.9465651,
            0
          ],
          [
            107.5929217,
            -6.946706,
            0
          ],
          [
            107.5930626,
            -6.9467395,
            0
          ],
          [
            107.5934341,
            -6.9468277,
            0
          ]
        ]
      },
      "properties": {
        "name": "Jalan Soekarno-Hatta",
        "styleUrl": "#8647",
        "styleHash": "-507713f3",
        "stroke": "#2E3192",
        "stroke-opacity": 1,
        "stroke-width": 4
      },
      "id": "8646"
    },
    {
      "type": "Feature",
      "geometry": {
        "type": "LineString",
        "coordinates": [
          [
            107.5899816,
            -6.945652,
            0
          ],
          [
            107.5902641,
            -6.9457816,
            0
          ],
          [
            107.5904302,
            -6.9458446,
            0
          ],
          [
            107.5905372,
            -6.9458885,
            0
          ]
        ]
      },
      "properties": {
        "name": "Jalan Soekarno-Hatta",
        "styleUrl": "#8651",
        "styleHash": "-73bc0325",
        "stroke": "#2E3192",
        "stroke-opacity": 1,
        "stroke-width": 4
      },
      "id": "8650"
    },
    {
      "type": "Feature",
      "geometry": {
        "type": "LineString",
        "coordinates": [
          [
            107.6149218,
            -6.8948399,
            0
          ],
          [
            107.6148696,
            -6.8948387,
            0
          ],
          [
            107.6146258,
            -6.894833,
            0
          ],
          [
            107.6144033,
            -6.8948278,
            0
          ]
        ]
      },
      "properties": {
        "name": "Jalan Hasanudin",
        "styleUrl": "#8655",
        "styleHash": "-27751f2d",
        "stroke": "#2E3192",
        "stroke-opacity": 1,
        "stroke-width": 4
      },
      "id": "8654"
    },
    {
      "type": "Feature",
      "geometry": {
        "type": "LineString",
        "coordinates": [
          [
            107.6144033,
            -6.8948278,
            0
          ],
          [
            107.6143207,
            -6.8948258,
            0
          ],
          [
            107.613998,
            -6.8948183,
            0
          ]
        ]
      },
      "properties": {
        "name": "Jalan Hasanudin",
        "styleUrl": "#8659",
        "styleHash": "-12864b6a",
        "stroke": "#2E3192",
        "stroke-opacity": 1,
        "stroke-width": 4
      },
      "id": "8658"
    },
    {
      "type": "Feature",
      "geometry": {
        "type": "LineString",
        "coordinates": [
          [
            107.6106282,
            -6.9067845,
            0
          ],
          [
            107.6106277,
            -6.9068319,
            0
          ],
          [
            107.6106152,
            -6.9069907,
            0
          ]
        ]
      },
      "properties": {
        "name": "Jalan Ir. H. Djuanda",
        "styleUrl": "#8663",
        "styleHash": "18cd599",
        "stroke": "#2E3192",
        "stroke-opacity": 1,
        "stroke-width": 4
      },
      "id": "8662"
    },
    {
      "type": "Feature",
      "geometry": {
        "type": "LineString",
        "coordinates": [
          [
            107.5899199,
            -6.9452949,
            0
          ],
          [
            107.5898972,
            -6.9453598,
            0
          ]
        ]
      },
      "properties": {
        "name": "Jalan Kyai Haji Wahid Hasyim",
        "styleUrl": "#8667",
        "styleHash": "4dd3b991",
        "stroke": "#2E3192",
        "stroke-opacity": 1,
        "stroke-width": 4
      },
      "id": "8666"
    },
    {
      "type": "Feature",
      "geometry": {
        "type": "LineString",
        "coordinates": [
          [
            107.5934341,
            -6.9468277,
            0
          ],
          [
            107.5935172,
            -6.946847,
            0
          ],
          [
            107.5935575,
            -6.9468564,
            0
          ],
          [
            107.5936688,
            -6.9468823,
            0
          ],
          [
            107.593986,
            -6.9469544,
            0
          ],
          [
            107.5940785,
            -6.9469738,
            0
          ],
          [
            107.5941765,
            -6.9469938,
            0
          ],
          [
            107.5942182,
            -6.9470057,
            0
          ],
          [
            107.5946413,
            -6.947092,
            0
          ],
          [
            107.5946801,
            -6.9470993,
            0
          ]
        ]
      },
      "properties": {
        "name": "Jalan Soekarno-Hatta",
        "styleUrl": "#8671",
        "styleHash": "2a8eca5f",
        "stroke": "#2E3192",
        "stroke-opacity": 1,
        "stroke-width": 4
      },
      "id": "8670"
    },
    {
      "type": "Feature",
      "geometry": {
        "type": "LineString",
        "coordinates": [
          [
            107.5937479,
            -6.9458174,
            0
          ],
          [
            107.5937354,
            -6.9458345,
            0
          ],
          [
            107.5937192,
            -6.9458627,
            0
          ],
          [
            107.5937098,
            -6.9458851,
            0
          ]
        ]
      },
      "properties": {
        "name": "Jalur Bus Kota",
        "styleUrl": "#8675",
        "styleHash": "76d5ae57",
        "stroke": "#2E3192",
        "stroke-opacity": 1,
        "stroke-width": 4
      },
      "id": "8674"
    },
    {
      "type": "Feature",
      "geometry": {
        "type": "LineString",
        "coordinates": [
          [
            107.5940315,
            -6.9457129,
            0
          ],
          [
            107.5939798,
            -6.9457037,
            0
          ]
        ]
      },
      "properties": {
        "name": "Jalur Bus Kota dan AKAP",
        "styleUrl": "#8679",
        "styleHash": "-743b7de6",
        "stroke": "#2E3192",
        "stroke-opacity": 1,
        "stroke-width": 4
      },
      "id": "8678"
    },
    {
      "type": "Feature",
      "geometry": {
        "type": "LineString",
        "coordinates": [
          [
            107.5939798,
            -6.9457037,
            0
          ],
          [
            107.5938573,
            -6.9457504,
            0
          ],
          [
            107.5938167,
            -6.9457793,
            0
          ],
          [
            107.5937687,
            -6.9458089,
            0
          ],
          [
            107.5937479,
            -6.9458174,
            0
          ]
        ]
      },
      "properties": {
        "name": "Route Segment",
        "styleUrl": "#8683",
        "styleHash": "-60285ce3",
        "stroke": "#2E3192",
        "stroke-opacity": 1,
        "stroke-width": 4
      },
      "id": "8682"
    },
    {
      "type": "Feature",
      "geometry": {
        "type": "LineString",
        "coordinates": [
          [
            107.5940855,
            -6.9457238,
            0
          ],
          [
            107.5940315,
            -6.9457129,
            0
          ]
        ]
      },
      "properties": {
        "name": "Jalur Bus Kota dan AKAP",
        "styleUrl": "#8687",
        "styleHash": "-13e178eb",
        "stroke": "#2E3192",
        "stroke-opacity": 1,
        "stroke-width": 4
      },
      "id": "8686"
    },
    {
      "type": "Feature",
      "geometry": {
        "type": "LineString",
        "coordinates": [
          [
            107.5947542,
            -6.9458158,
            0
          ],
          [
            107.5946724,
            -6.9458045,
            0
          ],
          [
            107.5944877,
            -6.9457804,
            0
          ]
        ]
      },
      "properties": {
        "name": "Jalur Bus Kota dan AKAP",
        "styleUrl": "#8691",
        "styleHash": "-3726681d",
        "stroke": "#2E3192",
        "stroke-opacity": 1,
        "stroke-width": 4
      },
      "id": "8690"
    },
    {
      "type": "Feature",
      "geometry": {
        "type": "LineString",
        "coordinates": [
          [
            107.6177764,
            -6.8923055,
            0
          ],
          [
            107.6178188,
            -6.8923923,
            0
          ]
        ]
      },
      "properties": {
        "name": "Jalan Dipatiukur",
        "styleUrl": "#8695",
        "styleHash": "15207bdb",
        "stroke": "#2E3192",
        "stroke-opacity": 1,
        "stroke-width": 4
      },
      "id": "8694"
    }
  ]
}