{
  "type": "FeatureCollection",
  "features": [
    {
      "type": "Feature",
      "geometry": {
        "type": "Point",
        "coordinates": [
          107.5934112,
          -6.9360768,
          0
        ]
      },
      "properties": {
        "name": "Hotel Grand Pasundan",
        "styleUrl": "#4701",
        "styleHash": "-507e150c"
      },
      "id": "4700"
    },
    {
      "type": "Feature",
      "geometry": {
        "type": "Point",
        "coordinates": [
          107.5905268,
          -6.933574,
          0
        ]
      },
      "properties": {
        "name": "Bumi Kopo Kencana",
        "styleUrl": "#4706",
        "styleHash": "7e4b52d9"
      },
      "id": "4705"
    },
    {
      "type": "Feature",
      "geometry": {
        "type": "Point",
        "coordinates": [
          107.5872624,
          -6.9291184,
          0
        ]
      },
      "properties": {
        "name": "Festival Citylink",
        "styleUrl": "#4711",
        "styleHash": "-1b36f74d"
      },
      "id": "4710"
    },
    {
      "type": "Feature",
      "geometry": {
        "type": "Point",
        "coordinates": [
          107.5849563,
          -6.9270511,
          0
        ]
      },
      "properties": {
        "name": "Simpang Pasir Koja",
        "styleUrl": "#4716",
        "styleHash": "-4c6d8f68"
      },
      "id": "4715"
    },
    {
      "type": "Feature",
      "geometry": {
        "type": "Point",
        "coordinates": [
          107.5793217,
          -6.9292122,
          0
        ]
      },
      "properties": {
        "name": "SPBU Pasir Koja",
        "styleUrl": "#4721",
        "styleHash": "1a102672"
      },
      "id": "4720"
    },
    {
      "type": "Feature",
      "geometry": {
        "type": "Point",
        "coordinates": [
          107.5309483,
          -7.0141236,
          0
        ]
      },
      "properties": {
        "name": "Hotel Soreang A",
        "styleUrl": "#4726",
        "styleHash": "-172671a9"
      },
      "id": "4725"
    },
    {
      "type": "Feature",
      "geometry": {
        "type": "Point",
        "coordinates": [
          107.5292319,
          -7.0206847,
          0
        ]
      },
      "properties": {
        "name": "Mall Pelayanan Publik",
        "styleUrl": "#4731",
        "styleHash": "4f574431"
      },
      "id": "4730"
    },
    {
      "type": "Feature",
      "geometry": {
        "type": "Point",
        "coordinates": [
          107.5303409,
          -7.0234041,
          0
        ]
      },
      "properties": {
        "name": "Plaza Pemkab Bandung",
        "styleUrl": "#4736",
        "styleHash": "1e20ac16"
      },
      "id": "4735"
    },
    {
      "type": "Feature",
      "geometry": {
        "type": "Point",
        "coordinates": [
          107.5287745,
          -7.0287904,
          0
        ]
      },
      "properties": {
        "name": "Simpang Desa Soreang",
        "styleUrl": "#4741",
        "styleHash": "-7b619e10"
      },
      "id": "4740"
    },
    {
      "type": "Feature",
      "geometry": {
        "type": "Point",
        "coordinates": [
          107.5412986,
          -7.0305108,
          0
        ]
      },
      "properties": {
        "name": "Pasar Ikan Modern",
        "styleUrl": "#4746",
        "styleHash": "5367c9d5"
      },
      "id": "4745"
    },
    {
      "type": "Feature",
      "geometry": {
        "type": "Point",
        "coordinates": [
          107.5425246,
          -7.0273253,
          0
        ]
      },
      "properties": {
        "name": "RSUD Otto Iskandar Dinata",
        "styleUrl": "#4751",
        "styleHash": "-461a8051"
      },
      "id": "4750"
    },
    {
      "type": "Feature",
      "geometry": {
        "type": "Point",
        "coordinates": [
          107.5416105,
          -7.0218422,
          0
        ]
      },
      "properties": {
        "name": "Samsat Soreang",
        "styleUrl": "#4756",
        "styleHash": "-7751186c"
      },
      "id": "4755"
    },
    {
      "type": "Feature",
      "geometry": {
        "type": "Point",
        "coordinates": [
          107.5363125,
          -7.0154748,
          0
        ]
      },
      "properties": {
        "name": "Geo Dipa Energi",
        "styleUrl": "#4761",
        "styleHash": "-10d36292"
      },
      "id": "4760"
    },
    {
      "type": "Feature",
      "geometry": {
        "type": "Point",
        "coordinates": [
          107.5932425,
          -6.9458452,
          0
        ]
      },
      "properties": {
        "name": "Terminal Leuwipanjang",
        "styleUrl": "#4766",
        "styleHash": "-4209faad"
      },
      "id": "4765"
    },
    {
      "type": "Feature",
      "geometry": {
        "type": "Point",
        "coordinates": [
          107.530779,
          -7.0141857,
          0
        ]
      },
      "properties": {
        "name": "Hotel Soreang B",
        "styleUrl": "#4771",
        "styleHash": "2473bb2d"
      },
      "id": "4770"
    },
    {
      "type": "Feature",
      "geometry": {
        "type": "LineString",
        "coordinates": [
          [
            107.5534835,
            -6.938557,
            0
          ],
          [
            107.5530673,
            -6.9387634,
            0
          ]
        ]
      },
      "properties": {
        "name": "Jalan Tol Soreang–Pasirkoja",
        "styleUrl": "#4776",
        "styleHash": "59e9f8ce",
        "stroke": "#00A64F",
        "stroke-opacity": 1,
        "stroke-width": 4
      },
      "id": "4775"
    },
    {
      "type": "Feature",
      "geometry": {
        "type": "LineString",
        "coordinates": [
          [
            107.5563903,
            -6.9371305,
            0
          ],
          [
            107.5552073,
            -6.9377116,
            0
          ],
          [
            107.5534835,
            -6.938557,
            0
          ]
        ]
      },
      "properties": {
        "name": "Jalan Tol Soreang–Pasirkoja",
        "styleUrl": "#4780",
        "styleHash": "36a5099c",
        "stroke": "#00A64F",
        "stroke-opacity": 1,
        "stroke-width": 4
      },
      "id": "4779"
    },
    {
      "type": "Feature",
      "geometry": {
        "type": "LineString",
        "coordinates": [
          [
            107.5305806,
            -7.0239887,
            0
          ],
          [
            107.5306349,
            -7.0241413,
            0
          ],
          [
            107.5306414,
            -7.0241596,
            0
          ],
          [
            107.5306441,
            -7.0241681,
            0
          ],
          [
            107.5306807,
            -7.0242818,
            0
          ],
          [
            107.5306962,
            -7.024359,
            0
          ],
          [
            107.5307039,
            -7.0244388,
            0
          ],
          [
            107.5307009,
            -7.02452,
            0
          ],
          [
            107.5306881,
            -7.0245872,
            0
          ],
          [
            107.5306647,
            -7.0246544,
            0
          ],
          [
            107.5305835,
            -7.0248395,
            0
          ],
          [
            107.5305057,
            -7.0250085,
            0
          ],
          [
            107.5304621,
            -7.0250983,
            0
          ],
          [
            107.5303113,
            -7.0254098,
            0
          ],
          [
            107.5300075,
            -7.0260367,
            0
          ],
          [
            107.5299196,
            -7.0261839,
            0
          ],
          [
            107.5298399,
            -7.0263176,
            0
          ],
          [
            107.5297072,
            -7.0265036,
            0
          ],
          [
            107.5296112,
            -7.0266383,
            0
          ],
          [
            107.5294751,
            -7.0268127,
            0
          ],
          [
            107.529347,
            -7.0269998,
            0
          ],
          [
            107.5292552,
            -7.0271688,
            0
          ],
          [
            107.5292156,
            -7.0272486,
            0
          ],
          [
            107.5291881,
            -7.0273298,
            0
          ],
          [
            107.5291599,
            -7.0274356,
            0
          ],
          [
            107.5288564,
            -7.0285001,
            0
          ],
          [
            107.528797,
            -7.0287118,
            0
          ],
          [
            107.5287745,
            -7.0287904,
            0
          ],
          [
            107.5286564,
            -7.0292079,
            0
          ],
          [
            107.5285691,
            -7.0295078,
            0
          ],
          [
            107.528558,
            -7.0295442,
            0
          ],
          [
            107.5285552,
            -7.0295539,
            0
          ],
          [
            107.5285505,
            -7.02957,
            0
          ],
          [
            107.5285128,
            -7.0296962,
            0
          ]
        ]
      },
      "properties": {
        "name": "Route Segment",
        "styleUrl": "#4784",
        "styleHash": "-7d14126c",
        "stroke": "#00A64F",
        "stroke-opacity": 1,
        "stroke-width": 4
      },
      "id": "4783"
    },
    {
      "type": "Feature",
      "geometry": {
        "type": "LineString",
        "coordinates": [
          [
            107.5412032,
            -7.0307741,
            0
          ],
          [
            107.541262,
            -7.0306038,
            0
          ],
          [
            107.5412986,
            -7.0305108,
            0
          ],
          [
            107.5418368,
            -7.0291427,
            0
          ],
          [
            107.5418621,
            -7.0290741,
            0
          ],
          [
            107.5421526,
            -7.0283001,
            0
          ],
          [
            107.5424248,
            -7.0276027,
            0
          ],
          [
            107.5424895,
            -7.0274174,
            0
          ],
          [
            107.5425012,
            -7.0273837,
            0
          ],
          [
            107.5425246,
            -7.0273253,
            0
          ],
          [
            107.5427064,
            -7.0268719,
            0
          ],
          [
            107.5429217,
            -7.0262936,
            0
          ],
          [
            107.5429489,
            -7.0261581,
            0
          ],
          [
            107.5429559,
            -7.0261011,
            0
          ],
          [
            107.5429596,
            -7.0260687,
            0
          ],
          [
            107.5429694,
            -7.0259368,
            0
          ],
          [
            107.5429407,
            -7.0256737,
            0
          ],
          [
            107.5428936,
            -7.0253773,
            0
          ],
          [
            107.5428526,
            -7.0250912,
            0
          ],
          [
            107.5427339,
            -7.0240961,
            0
          ],
          [
            107.542693,
            -7.0238492,
            0
          ],
          [
            107.5425902,
            -7.0234933,
            0
          ],
          [
            107.5423537,
            -7.0229108,
            0
          ],
          [
            107.5422531,
            -7.0227251,
            0
          ],
          [
            107.5421694,
            -7.0225892,
            0
          ],
          [
            107.5420999,
            -7.0224763,
            0
          ],
          [
            107.5418414,
            -7.0221215,
            0
          ],
          [
            107.5416105,
            -7.0218422,
            0
          ],
          [
            107.5415343,
            -7.0217501,
            0
          ],
          [
            107.541438,
            -7.0216383,
            0
          ],
          [
            107.5409385,
            -7.0210588,
            0
          ],
          [
            107.5405098,
            -7.0205561,
            0
          ],
          [
            107.5403319,
            -7.0203475,
            0
          ],
          [
            107.5402532,
            -7.0202552,
            0
          ]
        ]
      },
      "properties": {
        "name": "Route Segment",
        "styleUrl": "#4788",
        "styleHash": "-30cd2e74",
        "stroke": "#00A64F",
        "stroke-opacity": 1,
        "stroke-width": 4
      },
      "id": "4787"
    },
    {
      "type": "Feature",
      "geometry": {
        "type": "LineString",
        "coordinates": [
          [
            107.5687225,
            -6.9315744,
            0
          ],
          [
            107.5682915,
            -6.9316354,
            0
          ],
          [
            107.5679369,
            -6.9317146,
            0
          ],
          [
            107.5676081,
            -6.931807,
            0
          ],
          [
            107.5667242,
            -6.9321425,
            0
          ],
          [
            107.5626466,
            -6.9341271,
            0
          ],
          [
            107.5606578,
            -6.9351042,
            0
          ]
        ]
      },
      "properties": {
        "name": "Jalan Tol Soreang–Pasirkoja",
        "styleUrl": "#4792",
        "styleHash": "-54121da6",
        "stroke": "#00A64F",
        "stroke-opacity": 1,
        "stroke-width": 4
      },
      "id": "4791"
    },
    {
      "type": "Feature",
      "geometry": {
        "type": "LineString",
        "coordinates": [
          [
            107.5760593,
            -6.9304537,
            0
          ],
          [
            107.5759595,
            -6.9304856,
            0
          ]
        ]
      },
      "properties": {
        "name": "Route Segment",
        "styleUrl": "#4796",
        "styleHash": "-7cb39ae",
        "stroke": "#00A64F",
        "stroke-opacity": 1,
        "stroke-width": 4
      },
      "id": "4795"
    },
    {
      "type": "Feature",
      "geometry": {
        "type": "LineString",
        "coordinates": [
          [
            107.5816898,
            -6.9282976,
            0
          ],
          [
            107.5807152,
            -6.928674,
            0
          ],
          [
            107.5799204,
            -6.928981,
            0
          ],
          [
            107.5795877,
            -6.9291095,
            0
          ],
          [
            107.5794257,
            -6.929172,
            0
          ],
          [
            107.5793217,
            -6.9292122,
            0
          ],
          [
            107.5785692,
            -6.9295028,
            0
          ],
          [
            107.5783628,
            -6.9295826,
            0
          ]
        ]
      },
      "properties": {
        "name": "Jalan Pasir Koja",
        "styleUrl": "#4800",
        "styleHash": "5301450a",
        "stroke": "#00A64F",
        "stroke-opacity": 1,
        "stroke-width": 4
      },
      "id": "4799"
    },
    {
      "type": "Feature",
      "geometry": {
        "type": "LineString",
        "coordinates": [
          [
            107.5910269,
            -6.9435481,
            0
          ],
          [
            107.5910603,
            -6.9434929,
            0
          ],
          [
            107.5910903,
            -6.9434463,
            0
          ],
          [
            107.5911028,
            -6.9434233,
            0
          ],
          [
            107.5911203,
            -6.9433931,
            0
          ],
          [
            107.5912147,
            -6.9432302,
            0
          ],
          [
            107.591257,
            -6.9431573,
            0
          ],
          [
            107.5913003,
            -6.9430856,
            0
          ],
          [
            107.5913435,
            -6.9430138,
            0
          ],
          [
            107.5914686,
            -6.9428144,
            0
          ],
          [
            107.5916513,
            -6.9425217,
            0
          ],
          [
            107.5918451,
            -6.942203,
            0
          ],
          [
            107.5918647,
            -6.9421708,
            0
          ],
          [
            107.59192,
            -6.9420837,
            0
          ],
          [
            107.5920724,
            -6.9418438,
            0
          ],
          [
            107.5922389,
            -6.9415903,
            0
          ],
          [
            107.5924641,
            -6.9412448,
            0
          ],
          [
            107.5930896,
            -6.9402979,
            0
          ],
          [
            107.59314,
            -6.9402168,
            0
          ],
          [
            107.5932148,
            -6.9400962,
            0
          ],
          [
            107.5932356,
            -6.9400628,
            0
          ],
          [
            107.5933094,
            -6.939944,
            0
          ],
          [
            107.5934404,
            -6.9397331,
            0
          ],
          [
            107.5936005,
            -6.9394752,
            0
          ],
          [
            107.5937688,
            -6.9391642,
            0
          ],
          [
            107.5939092,
            -6.9389121,
            0
          ],
          [
            107.5939987,
            -6.938752,
            0
          ],
          [
            107.5940814,
            -6.9386042,
            0
          ],
          [
            107.5941015,
            -6.9385696,
            0
          ],
          [
            107.594148,
            -6.9384872,
            0
          ],
          [
            107.594204,
            -6.9383881,
            0
          ],
          [
            107.594524,
            -6.9378129,
            0
          ],
          [
            107.5945872,
            -6.9376992,
            0
          ],
          [
            107.5946221,
            -6.9376377,
            0
          ],
          [
            107.5946542,
            -6.9375847,
            0
          ],
          [
            107.5948299,
            -6.9373141,
            0
          ]
        ]
      },
      "properties": {
        "name": "Jalan Kyai Haji Wahid Hasyim",
        "styleUrl": "#4804",
        "styleHash": "-60b7d6fe",
        "stroke": "#00A64F",
        "stroke-opacity": 1,
        "stroke-width": 4
      },
      "id": "4803"
    },
    {
      "type": "Feature",
      "geometry": {
        "type": "LineString",
        "coordinates": [
          [
            107.5763738,
            -6.9303407,
            0
          ],
          [
            107.5761862,
            -6.9304065,
            0
          ],
          [
            107.5760593,
            -6.9304537,
            0
          ]
        ]
      },
      "properties": {
        "name": "Jalan Pasir Koja",
        "styleUrl": "#4808",
        "styleHash": "-1470f306",
        "stroke": "#00A64F",
        "stroke-opacity": 1,
        "stroke-width": 4
      },
      "id": "4807"
    },
    {
      "type": "Feature",
      "geometry": {
        "type": "LineString",
        "coordinates": [
          [
            107.5941,
            -6.9365167,
            0
          ],
          [
            107.5940685,
            -6.936498,
            0
          ],
          [
            107.5938034,
            -6.9363309,
            0
          ],
          [
            107.5937173,
            -6.9362775,
            0
          ],
          [
            107.5936387,
            -6.9362255,
            0
          ],
          [
            107.5934112,
            -6.9360768,
            0
          ],
          [
            107.5929253,
            -6.9357593,
            0
          ],
          [
            107.5926348,
            -6.9355874,
            0
          ],
          [
            107.5923246,
            -6.9353626,
            0
          ],
          [
            107.5919994,
            -6.9351204,
            0
          ],
          [
            107.5917192,
            -6.9348719,
            0
          ],
          [
            107.5916857,
            -6.9348415,
            0
          ],
          [
            107.5914958,
            -6.9346635,
            0
          ],
          [
            107.5914306,
            -6.9346026,
            0
          ],
          [
            107.5914077,
            -6.934577,
            0
          ],
          [
            107.5911483,
            -6.9342878,
            0
          ],
          [
            107.5907048,
            -6.9337927,
            0
          ],
          [
            107.5906563,
            -6.9337317,
            0
          ],
          [
            107.5905268,
            -6.933574,
            0
          ],
          [
            107.5902955,
            -6.9332924,
            0
          ],
          [
            107.5900181,
            -6.9329457,
            0
          ],
          [
            107.5899659,
            -6.9328782,
            0
          ],
          [
            107.5892057,
            -6.9318954,
            0
          ],
          [
            107.5887036,
            -6.9312262,
            0
          ],
          [
            107.5886347,
            -6.9311348,
            0
          ],
          [
            107.5885244,
            -6.9309884,
            0
          ],
          [
            107.5884445,
            -6.9308824,
            0
          ],
          [
            107.5882717,
            -6.9306532,
            0
          ],
          [
            107.5881617,
            -6.9305127,
            0
          ],
          [
            107.5880076,
            -6.930291,
            0
          ],
          [
            107.5878265,
            -6.9300334,
            0
          ],
          [
            107.58773,
            -6.9298868,
            0
          ]
        ]
      },
      "properties": {
        "name": "Jalan Peta",
        "styleUrl": "#4812",
        "styleHash": "-37b5e238",
        "stroke": "#00A64F",
        "stroke-opacity": 1,
        "stroke-width": 4
      },
      "id": "4811"
    },
    {
      "type": "Feature",
      "geometry": {
        "type": "LineString",
        "coordinates": [
          [
            107.5928649,
            -6.9448811,
            0
          ],
          [
            107.5928452,
            -6.9447709,
            0
          ],
          [
            107.5927744,
            -6.9446004,
            0
          ],
          [
            107.5927602,
            -6.9445782,
            0
          ],
          [
            107.5926579,
            -6.9444185,
            0
          ],
          [
            107.5924688,
            -6.9442725,
            0
          ],
          [
            107.5920765,
            -6.9440744,
            0
          ]
        ]
      },
      "properties": {
        "name": "Jalan Keluar Terminal Leuwipanjang",
        "styleUrl": "#4816",
        "styleHash": "149101c0",
        "stroke": "#00A64F",
        "stroke-opacity": 1,
        "stroke-width": 4
      },
      "id": "4815"
    },
    {
      "type": "Feature",
      "geometry": {
        "type": "LineString",
        "coordinates": [
          [
            107.5756757,
            -6.930606,
            0
          ],
          [
            107.574376,
            -6.9310934,
            0
          ],
          [
            107.5740343,
            -6.9311881,
            0
          ],
          [
            107.5734943,
            -6.9313232,
            0
          ],
          [
            107.5731126,
            -6.9313875,
            0
          ],
          [
            107.5724454,
            -6.9314392,
            0
          ],
          [
            107.5719439,
            -6.9314645,
            0
          ]
        ]
      },
      "properties": {
        "name": "Jalan Tol Soreang–Pasirkoja",
        "styleUrl": "#4820",
        "styleHash": "-eb3ed72",
        "stroke": "#00A64F",
        "stroke-opacity": 1,
        "stroke-width": 4
      },
      "id": "4819"
    },
    {
      "type": "Feature",
      "geometry": {
        "type": "LineString",
        "coordinates": [
          [
            107.5475305,
            -6.9426919,
            0
          ],
          [
            107.5473641,
            -6.9431039,
            0
          ],
          [
            107.5468129,
            -6.9446442,
            0
          ],
          [
            107.5461515,
            -6.9465266,
            0
          ],
          [
            107.5457226,
            -6.947742,
            0
          ],
          [
            107.5451795,
            -6.9493121,
            0
          ],
          [
            107.543552,
            -6.9540249,
            0
          ],
          [
            107.543251,
            -6.9548847,
            0
          ],
          [
            107.5429431,
            -6.9557781,
            0
          ],
          [
            107.5426795,
            -6.9566175,
            0
          ],
          [
            107.5425562,
            -6.9571153,
            0
          ],
          [
            107.5425012,
            -6.9573164,
            0
          ],
          [
            107.5424556,
            -6.957544,
            0
          ],
          [
            107.5424127,
            -6.957761,
            0
          ],
          [
            107.5423819,
            -6.9580552,
            0
          ],
          [
            107.5423658,
            -6.9583428,
            0
          ],
          [
            107.5423645,
            -6.9586582,
            0
          ],
          [
            107.5423819,
            -6.9589165,
            0
          ],
          [
            107.542398,
            -6.9591182,
            0
          ],
          [
            107.5424235,
            -6.9594091,
            0
          ],
          [
            107.5424772,
            -6.959722,
            0
          ],
          [
            107.5425401,
            -6.9600174,
            0
          ],
          [
            107.5426018,
            -6.9602704,
            0
          ],
          [
            107.5426796,
            -6.9605259,
            0
          ],
          [
            107.5427674,
            -6.9607529,
            0
          ]
        ]
      },
      "properties": {
        "name": "Jalan Tol Soreang–Pasirkoja",
        "styleUrl": "#4824",
        "styleHash": "3d92f686",
        "stroke": "#00A64F",
        "stroke-opacity": 1,
        "stroke-width": 4
      },
      "id": "4823"
    },
    {
      "type": "Feature",
      "geometry": {
        "type": "LineString",
        "coordinates": [
          [
            107.5948299,
            -6.9373141,
            0
          ],
          [
            107.5948404,
            -6.9372004,
            0
          ],
          [
            107.5948364,
            -6.9370866,
            0
          ],
          [
            107.5948276,
            -6.937023,
            0
          ],
          [
            107.5948141,
            -6.9369602,
            0
          ]
        ]
      },
      "properties": {
        "name": "Route Segment",
        "styleUrl": "#4828",
        "styleHash": "-76262582",
        "stroke": "#00A64F",
        "stroke-opacity": 1,
        "stroke-width": 4
      },
      "id": "4827"
    },
    {
      "type": "Feature",
      "geometry": {
        "type": "LineString",
        "coordinates": [
          [
            107.5603421,
            -6.9352541,
            0
          ],
          [
            107.5590371,
            -6.9358831,
            0
          ],
          [
            107.5578371,
            -6.9364506,
            0
          ],
          [
            107.5563903,
            -6.9371305,
            0
          ]
        ]
      },
      "properties": {
        "name": "Jalan Tol Soreang–Pasirkoja",
        "styleUrl": "#4832",
        "styleHash": "6694eb4c",
        "stroke": "#00A64F",
        "stroke-opacity": 1,
        "stroke-width": 4
      },
      "id": "4831"
    },
    {
      "type": "Feature",
      "geometry": {
        "type": "LineString",
        "coordinates": [
          [
            107.5606578,
            -6.9351042,
            0
          ],
          [
            107.5603421,
            -6.9352541,
            0
          ]
        ]
      },
      "properties": {
        "name": "Jalan Tol Soreang–Pasirkoja",
        "styleUrl": "#4836",
        "styleHash": "-4d2430bc",
        "stroke": "#00A64F",
        "stroke-opacity": 1,
        "stroke-width": 4
      },
      "id": "4835"
    },
    {
      "type": "Feature",
      "geometry": {
        "type": "LineString",
        "coordinates": [
          [
            107.5461451,
            -6.9722592,
            0
          ],
          [
            107.5460511,
            -6.9727477,
            0
          ],
          [
            107.5459445,
            -6.9732256,
            0
          ],
          [
            107.5456408,
            -6.9744144,
            0
          ],
          [
            107.5453431,
            -6.9756151,
            0
          ],
          [
            107.5452049,
            -6.9761636,
            0
          ],
          [
            107.5450372,
            -6.9768557,
            0
          ],
          [
            107.5448656,
            -6.9774681,
            0
          ],
          [
            107.5446081,
            -6.978344,
            0
          ],
          [
            107.5444258,
            -6.9789044,
            0
          ],
          [
            107.5440181,
            -6.9800345,
            0
          ],
          [
            107.5436988,
            -6.9808772,
            0
          ],
          [
            107.5434481,
            -6.981455,
            0
          ],
          [
            107.5431543,
            -6.9820806,
            0
          ],
          [
            107.5428262,
            -6.9827735,
            0
          ],
          [
            107.542579,
            -6.9832667,
            0
          ],
          [
            107.5423296,
            -6.9837205,
            0
          ],
          [
            107.5420815,
            -6.9841589,
            0
          ],
          [
            107.5414721,
            -6.9851835,
            0
          ],
          [
            107.5394307,
            -6.9884362,
            0
          ],
          [
            107.5386488,
            -6.9896623,
            0
          ],
          [
            107.5380287,
            -6.9906345,
            0
          ],
          [
            107.5374735,
            -6.9915251,
            0
          ],
          [
            107.5370791,
            -6.9921494,
            0
          ],
          [
            107.536108,
            -6.9937323,
            0
          ],
          [
            107.5359446,
            -6.9940476,
            0
          ],
          [
            107.5358011,
            -6.9943324,
            0
          ],
          [
            107.5355731,
            -6.9948222,
            0
          ]
        ]
      },
      "properties": {
        "name": "Jalan Tol Soreang–Pasirkoja",
        "styleUrl": "#4840",
        "styleHash": "-70691fee",
        "stroke": "#00A64F",
        "stroke-opacity": 1,
        "stroke-width": 4
      },
      "id": "4839"
    },
    {
      "type": "Feature",
      "geometry": {
        "type": "LineString",
        "coordinates": [
          [
            107.5340609,
            -7.0018713,
            0
          ],
          [
            107.5335574,
            -7.0052316,
            0
          ],
          [
            107.5333779,
            -7.0064575,
            0
          ],
          [
            107.5331229,
            -7.0075476,
            0
          ],
          [
            107.5328073,
            -7.0085804,
            0
          ],
          [
            107.5325631,
            -7.0093,
            0
          ]
        ]
      },
      "properties": {
        "name": "Jalan Tol Soreang–Pasirkoja",
        "styleUrl": "#4844",
        "styleHash": "-24223bf6",
        "stroke": "#00A64F",
        "stroke-opacity": 1,
        "stroke-width": 4
      },
      "id": "4843"
    },
    {
      "type": "Feature",
      "geometry": {
        "type": "LineString",
        "coordinates": [
          [
            107.5341636,
            -7.0011664,
            0
          ],
          [
            107.5340609,
            -7.0018713,
            0
          ]
        ]
      },
      "properties": {
        "name": "Jalan Tol Soreang–Pasirkoja",
        "styleUrl": "#4848",
        "styleHash": "2824a802",
        "stroke": "#00A64F",
        "stroke-opacity": 1,
        "stroke-width": 4
      },
      "id": "4847"
    },
    {
      "type": "Feature",
      "geometry": {
        "type": "LineString",
        "coordinates": [
          [
            107.529864,
            -7.0169822,
            0
          ],
          [
            107.5306229,
            -7.014649,
            0
          ],
          [
            107.530779,
            -7.0141857,
            0
          ]
        ]
      },
      "properties": {
        "name": "Jalan Tol Soreang–Pasir Koja",
        "styleUrl": "#4852",
        "styleHash": "4dfb8d0",
        "stroke": "#00A64F",
        "stroke-opacity": 1,
        "stroke-width": 4
      },
      "id": "4851"
    },
    {
      "type": "Feature",
      "geometry": {
        "type": "LineString",
        "coordinates": [
          [
            107.5312306,
            -7.0132506,
            0
          ],
          [
            107.5309483,
            -7.0141236,
            0
          ],
          [
            107.5307558,
            -7.014719,
            0
          ],
          [
            107.5300075,
            -7.0170395,
            0
          ]
        ]
      },
      "properties": {
        "name": "Jalan Tol Soreang–Pasir Koja",
        "styleUrl": "#4856",
        "styleHash": "51269cc8",
        "stroke": "#00A64F",
        "stroke-opacity": 1,
        "stroke-width": 4
      },
      "id": "4855"
    },
    {
      "type": "Feature",
      "geometry": {
        "type": "LineString",
        "coordinates": [
          [
            107.5462858,
            -6.9707976,
            0
          ],
          [
            107.5462429,
            -6.9714312,
            0
          ],
          [
            107.5461451,
            -6.9722592,
            0
          ]
        ]
      },
      "properties": {
        "name": "Jalan Tol Soreang–Pasirkoja",
        "styleUrl": "#4860",
        "styleHash": "2de1ad96",
        "stroke": "#00A64F",
        "stroke-opacity": 1,
        "stroke-width": 4
      },
      "id": "4859"
    },
    {
      "type": "Feature",
      "geometry": {
        "type": "LineString",
        "coordinates": [
          [
            107.591821,
            -6.9439456,
            0
          ],
          [
            107.5916379,
            -6.9438582,
            0
          ]
        ]
      },
      "properties": {
        "name": "Jalan Keluar Terminal Leuwipanjang",
        "styleUrl": "#4864",
        "styleHash": "7a28918e",
        "stroke": "#00A64F",
        "stroke-opacity": 1,
        "stroke-width": 4
      },
      "id": "4863"
    },
    {
      "type": "Feature",
      "geometry": {
        "type": "LineString",
        "coordinates": [
          [
            107.5920765,
            -6.9440744,
            0
          ],
          [
            107.591821,
            -6.9439456,
            0
          ]
        ]
      },
      "properties": {
        "name": "Jalan Keluar Terminal Leuwipanjang",
        "styleUrl": "#4868",
        "styleHash": "-39908a7a",
        "stroke": "#00A64F",
        "stroke-opacity": 1,
        "stroke-width": 4
      },
      "id": "4867"
    },
    {
      "type": "Feature",
      "geometry": {
        "type": "LineString",
        "coordinates": [
          [
            107.5528057,
            -6.9388985,
            0
          ],
          [
            107.5525246,
            -6.9390356,
            0
          ],
          [
            107.5514907,
            -6.9395162,
            0
          ]
        ]
      },
      "properties": {
        "name": "Jalan Tol Soreang–Pasirkoja",
        "styleUrl": "#4872",
        "styleHash": "-5cd579ac",
        "stroke": "#00A64F",
        "stroke-opacity": 1,
        "stroke-width": 4
      },
      "id": "4871"
    },
    {
      "type": "Feature",
      "geometry": {
        "type": "LineString",
        "coordinates": [
          [
            107.5503346,
            -6.9399222,
            0
          ],
          [
            107.5500285,
            -6.9400589,
            0
          ],
          [
            107.5496906,
            -6.9402293,
            0
          ],
          [
            107.5492509,
            -6.9405219,
            0
          ],
          [
            107.5489055,
            -6.9407973,
            0
          ],
          [
            107.5486466,
            -6.9410374,
            0
          ],
          [
            107.5484629,
            -6.9412222,
            0
          ],
          [
            107.5483028,
            -6.9414119,
            0
          ],
          [
            107.548119,
            -6.9416397,
            0
          ],
          [
            107.5480252,
            -6.941774,
            0
          ],
          [
            107.5478328,
            -6.9420356,
            0
          ],
          [
            107.5476786,
            -6.9423112,
            0
          ],
          [
            107.5476331,
            -6.9424293,
            0
          ],
          [
            107.5476138,
            -6.9424768,
            0
          ],
          [
            107.5475305,
            -6.9426919,
            0
          ]
        ]
      },
      "properties": {
        "name": "Jalan Tol Soreang–Pasirkoja",
        "styleUrl": "#4876",
        "styleHash": "-108e95b4",
        "stroke": "#00A64F",
        "stroke-opacity": 1,
        "stroke-width": 4
      },
      "id": "4875"
    },
    {
      "type": "Feature",
      "geometry": {
        "type": "LineString",
        "coordinates": [
          [
            107.5285128,
            -7.0296962,
            0
          ],
          [
            107.52866,
            -7.0297325,
            0
          ],
          [
            107.5286733,
            -7.0297358,
            0
          ],
          [
            107.5293086,
            -7.0298923,
            0
          ],
          [
            107.5300216,
            -7.0301113,
            0
          ],
          [
            107.5303098,
            -7.0301925,
            0
          ],
          [
            107.5306105,
            -7.0302601,
            0
          ],
          [
            107.5311983,
            -7.0303797,
            0
          ],
          [
            107.5313917,
            -7.0304188,
            0
          ],
          [
            107.5314627,
            -7.0304331,
            0
          ],
          [
            107.532066,
            -7.0305671,
            0
          ],
          [
            107.5321788,
            -7.0305988,
            0
          ],
          [
            107.5327467,
            -7.0308147,
            0
          ],
          [
            107.533164,
            -7.0309696,
            0
          ],
          [
            107.5334145,
            -7.0310642,
            0
          ],
          [
            107.5336901,
            -7.0311543,
            0
          ],
          [
            107.5338637,
            -7.031211,
            0
          ],
          [
            107.534166,
            -7.0313098,
            0
          ],
          [
            107.534822,
            -7.0315241,
            0
          ],
          [
            107.5351954,
            -7.031635,
            0
          ],
          [
            107.5354296,
            -7.0316982,
            0
          ],
          [
            107.535563,
            -7.0317255,
            0
          ],
          [
            107.5357299,
            -7.0317464,
            0
          ],
          [
            107.5360524,
            -7.0317808,
            0
          ],
          [
            107.5367573,
            -7.0318363,
            0
          ],
          [
            107.5368474,
            -7.0318418,
            0
          ],
          [
            107.5370385,
            -7.0318537,
            0
          ],
          [
            107.5378656,
            -7.0319,
            0
          ],
          [
            107.5379691,
            -7.0319066,
            0
          ],
          [
            107.5382728,
            -7.0319305,
            0
          ],
          [
            107.5384854,
            -7.0319472,
            0
          ],
          [
            107.5405641,
            -7.0321106,
            0
          ]
        ]
      },
      "properties": {
        "name": "Jalan Raya Soreang - Banjaran",
        "styleUrl": "#4880",
        "styleHash": "-33d384e6",
        "stroke": "#00A64F",
        "stroke-opacity": 1,
        "stroke-width": 4
      },
      "id": "4879"
    },
    {
      "type": "Feature",
      "geometry": {
        "type": "LineString",
        "coordinates": [
          [
            107.5300075,
            -7.0170395,
            0
          ],
          [
            107.529864,
            -7.0169822,
            0
          ]
        ]
      },
      "properties": {
        "name": "Route Segment",
        "styleUrl": "#4884",
        "styleHash": "18735f12",
        "stroke": "#00A64F",
        "stroke-opacity": 1,
        "stroke-width": 4
      },
      "id": "4883"
    },
    {
      "type": "Feature",
      "geometry": {
        "type": "LineString",
        "coordinates": [
          [
            107.5331372,
            -7.014147,
            0
          ],
          [
            107.5330062,
            -7.0140699,
            0
          ],
          [
            107.5320715,
            -7.0134656,
            0
          ],
          [
            107.5315075,
            -7.0130986,
            0
          ],
          [
            107.5314157,
            -7.013074,
            0
          ],
          [
            107.5313356,
            -7.013113,
            0
          ],
          [
            107.5312306,
            -7.0132506,
            0
          ]
        ]
      },
      "properties": {
        "name": "Route Segment",
        "styleUrl": "#4888",
        "styleHash": "64ba430a",
        "stroke": "#00A64F",
        "stroke-opacity": 1,
        "stroke-width": 4
      },
      "id": "4887"
    },
    {
      "type": "Feature",
      "geometry": {
        "type": "LineString",
        "coordinates": [
          [
            107.5355731,
            -6.9948222,
            0
          ],
          [
            107.535482,
            -6.9950632,
            0
          ]
        ]
      },
      "properties": {
        "name": "Jalan Tol Soreang–Pasirkoja",
        "styleUrl": "#4892",
        "styleHash": "417553d8",
        "stroke": "#00A64F",
        "stroke-opacity": 1,
        "stroke-width": 4
      },
      "id": "4891"
    },
    {
      "type": "Feature",
      "geometry": {
        "type": "LineString",
        "coordinates": [
          [
            107.535482,
            -6.9950632,
            0
          ],
          [
            107.5351592,
            -6.9959437,
            0
          ],
          [
            107.5348717,
            -6.9968744,
            0
          ]
        ]
      },
      "properties": {
        "name": "Jalan Tol Soreang–Pasirkoja",
        "styleUrl": "#4896",
        "styleHash": "-7243c830",
        "stroke": "#00A64F",
        "stroke-opacity": 1,
        "stroke-width": 4
      },
      "id": "4895"
    },
    {
      "type": "Feature",
      "geometry": {
        "type": "LineString",
        "coordinates": [
          [
            107.529373,
            -7.021029,
            0
          ],
          [
            107.5296481,
            -7.021692,
            0
          ],
          [
            107.5297015,
            -7.0218228,
            0
          ],
          [
            107.5299825,
            -7.0225197,
            0
          ],
          [
            107.5302928,
            -7.0232792,
            0
          ]
        ]
      },
      "properties": {
        "name": "Jalan Al-Fathu",
        "styleUrl": "#4900",
        "styleHash": "-17774978",
        "stroke": "#00A64F",
        "stroke-opacity": 1,
        "stroke-width": 4
      },
      "id": "4899"
    },
    {
      "type": "Feature",
      "geometry": {
        "type": "LineString",
        "coordinates": [
          [
            107.5710193,
            -6.9316559,
            0
          ],
          [
            107.5707404,
            -6.9316796,
            0
          ],
          [
            107.5702729,
            -6.9316724,
            0
          ],
          [
            107.56991,
            -6.9316424,
            0
          ]
        ]
      },
      "properties": {
        "name": "Jalan Tol Soreang–Pasirkoja",
        "styleUrl": "#4904",
        "styleHash": "34cf9a80",
        "stroke": "#00A64F",
        "stroke-opacity": 1,
        "stroke-width": 4
      },
      "id": "4903"
    },
    {
      "type": "Feature",
      "geometry": {
        "type": "LineString",
        "coordinates": [
          [
            107.56991,
            -6.9316424,
            0
          ],
          [
            107.5697154,
            -6.9316078,
            0
          ],
          [
            107.5694977,
            -6.9315813,
            0
          ],
          [
            107.5692329,
            -6.9315587,
            0
          ],
          [
            107.5690162,
            -6.931555,
            0
          ],
          [
            107.5687225,
            -6.9315744,
            0
          ]
        ]
      },
      "properties": {
        "name": "Jalan Tol Soreang–Pasirkoja",
        "styleUrl": "#4908",
        "styleHash": "-7ee98188",
        "stroke": "#00A64F",
        "stroke-opacity": 1,
        "stroke-width": 4
      },
      "id": "4907"
    },
    {
      "type": "Feature",
      "geometry": {
        "type": "LineString",
        "coordinates": [
          [
            107.5348001,
            -6.997157,
            0
          ],
          [
            107.5346812,
            -6.997763,
            0
          ],
          [
            107.5341948,
            -7.0009457,
            0
          ],
          [
            107.5341636,
            -7.0011664,
            0
          ]
        ]
      },
      "properties": {
        "name": "Jalan Tol Soreang–Pasirkoja",
        "styleUrl": "#4912",
        "styleHash": "5dd18f46",
        "stroke": "#00A64F",
        "stroke-opacity": 1,
        "stroke-width": 4
      },
      "id": "4911"
    },
    {
      "type": "Feature",
      "geometry": {
        "type": "LineString",
        "coordinates": [
          [
            107.5348717,
            -6.9968744,
            0
          ],
          [
            107.5348652,
            -6.9969019,
            0
          ],
          [
            107.5348001,
            -6.997157,
            0
          ]
        ]
      },
      "properties": {
        "name": "Jalan Tol Soreang–Pasirkoja",
        "styleUrl": "#4916",
        "styleHash": "-55e78cc2",
        "stroke": "#00A64F",
        "stroke-opacity": 1,
        "stroke-width": 4
      },
      "id": "4915"
    },
    {
      "type": "Feature",
      "geometry": {
        "type": "LineString",
        "coordinates": [
          [
            107.5842232,
            -6.9273144,
            0
          ],
          [
            107.5840952,
            -6.927361,
            0
          ]
        ]
      },
      "properties": {
        "name": "Jalan Pasir Koja",
        "styleUrl": "#4920",
        "styleHash": "-792c7bf4",
        "stroke": "#00A64F",
        "stroke-opacity": 1,
        "stroke-width": 4
      },
      "id": "4919"
    },
    {
      "type": "Feature",
      "geometry": {
        "type": "LineString",
        "coordinates": [
          [
            107.5852085,
            -6.9269571,
            0
          ],
          [
            107.5849563,
            -6.9270511,
            0
          ],
          [
            107.584617,
            -6.9271777,
            0
          ],
          [
            107.5842232,
            -6.9273144,
            0
          ]
        ]
      },
      "properties": {
        "name": "Jalan Pasir Koja",
        "styleUrl": "#4924",
        "styleHash": "-2ce597fc",
        "stroke": "#00A64F",
        "stroke-opacity": 1,
        "stroke-width": 4
      },
      "id": "4923"
    },
    {
      "type": "Feature",
      "geometry": {
        "type": "LineString",
        "coordinates": [
          [
            107.5819475,
            -6.9282057,
            0
          ],
          [
            107.5816898,
            -6.9282976,
            0
          ]
        ]
      },
      "properties": {
        "name": "Jalan Pasir Koja",
        "styleUrl": "#4928",
        "styleHash": "1f614bfc",
        "stroke": "#00A64F",
        "stroke-opacity": 1,
        "stroke-width": 4
      },
      "id": "4927"
    },
    {
      "type": "Feature",
      "geometry": {
        "type": "LineString",
        "coordinates": [
          [
            107.5840952,
            -6.927361,
            0
          ],
          [
            107.5837804,
            -6.9274848,
            0
          ],
          [
            107.5828888,
            -6.9278355,
            0
          ],
          [
            107.5821832,
            -6.928113,
            0
          ],
          [
            107.5819475,
            -6.9282057,
            0
          ]
        ]
      },
      "properties": {
        "name": "Jalan Pasir Koja",
        "styleUrl": "#4932",
        "styleHash": "-3e3a336",
        "stroke": "#00A64F",
        "stroke-opacity": 1,
        "stroke-width": 4
      },
      "id": "4931"
    },
    {
      "type": "Feature",
      "geometry": {
        "type": "LineString",
        "coordinates": [
          [
            107.5948141,
            -6.9369602,
            0
          ],
          [
            107.5943039,
            -6.9366433,
            0
          ],
          [
            107.5941,
            -6.9365167,
            0
          ]
        ]
      },
      "properties": {
        "name": "Jalan Peta",
        "styleUrl": "#4936",
        "styleHash": "486340c2",
        "stroke": "#00A64F",
        "stroke-opacity": 1,
        "stroke-width": 4
      },
      "id": "4935"
    },
    {
      "type": "Feature",
      "geometry": {
        "type": "LineString",
        "coordinates": [
          [
            107.540107,
            -7.0200579,
            0
          ],
          [
            107.5398293,
            -7.0196986,
            0
          ]
        ]
      },
      "properties": {
        "name": "Route Segment",
        "styleUrl": "#4940",
        "styleHash": "251e5190",
        "stroke": "#00A64F",
        "stroke-opacity": 1,
        "stroke-width": 4
      },
      "id": "4939"
    },
    {
      "type": "Feature",
      "geometry": {
        "type": "LineString",
        "coordinates": [
          [
            107.5402239,
            -7.0202089,
            0
          ],
          [
            107.540107,
            -7.0200579,
            0
          ]
        ]
      },
      "properties": {
        "name": "Route Segment",
        "styleUrl": "#4944",
        "styleHash": "71653588",
        "stroke": "#00A64F",
        "stroke-opacity": 1,
        "stroke-width": 4
      },
      "id": "4943"
    },
    {
      "type": "Feature",
      "geometry": {
        "type": "LineString",
        "coordinates": [
          [
            107.5427674,
            -6.9607529,
            0
          ],
          [
            107.5430109,
            -6.9613207,
            0
          ]
        ]
      },
      "properties": {
        "name": "Jalan Tol Soreang–Pasirkoja",
        "styleUrl": "#4948",
        "styleHash": "-4253e680",
        "stroke": "#00A64F",
        "stroke-opacity": 1,
        "stroke-width": 4
      },
      "id": "4947"
    },
    {
      "type": "Feature",
      "geometry": {
        "type": "LineString",
        "coordinates": [
          [
            107.5430109,
            -6.9613207,
            0
          ],
          [
            107.5431182,
            -6.961527,
            0
          ],
          [
            107.5439991,
            -6.9631445,
            0
          ],
          [
            107.5442219,
            -6.9635531,
            0
          ],
          [
            107.5444834,
            -6.9640018,
            0
          ],
          [
            107.5446618,
            -6.9643186,
            0
          ],
          [
            107.5447918,
            -6.964567,
            0
          ],
          [
            107.5452341,
            -6.9654715,
            0
          ],
          [
            107.5453244,
            -6.9656654,
            0
          ],
          [
            107.5454374,
            -6.9659251,
            0
          ],
          [
            107.5455183,
            -6.9661251,
            0
          ],
          [
            107.5456674,
            -6.9665325,
            0
          ],
          [
            107.5458204,
            -6.9670238,
            0
          ],
          [
            107.5459776,
            -6.9676628,
            0
          ],
          [
            107.5461303,
            -6.9683481,
            0
          ],
          [
            107.5462214,
            -6.9689073,
            0
          ],
          [
            107.5462723,
            -6.9694331,
            0
          ],
          [
            107.5462845,
            -6.9698511,
            0
          ],
          [
            107.5462952,
            -6.9702198,
            0
          ],
          [
            107.5462858,
            -6.9707976,
            0
          ]
        ]
      },
      "properties": {
        "name": "Jalan Tol Soreang–Pasirkoja",
        "styleUrl": "#4952",
        "styleHash": "-6598d5b2",
        "stroke": "#00A64F",
        "stroke-opacity": 1,
        "stroke-width": 4
      },
      "id": "4951"
    },
    {
      "type": "Feature",
      "geometry": {
        "type": "LineString",
        "coordinates": [
          [
            107.5397853,
            -7.0196465,
            0
          ],
          [
            107.5396136,
            -7.0194314,
            0
          ],
          [
            107.5385647,
            -7.0180242,
            0
          ],
          [
            107.5378463,
            -7.0171142,
            0
          ],
          [
            107.5374692,
            -7.0166366,
            0
          ],
          [
            107.5368846,
            -7.0159469,
            0
          ],
          [
            107.5368461,
            -7.0159149,
            0
          ],
          [
            107.536794,
            -7.0158645,
            0
          ],
          [
            107.536634,
            -7.0157201,
            0
          ],
          [
            107.5365507,
            -7.0156508,
            0
          ],
          [
            107.5363928,
            -7.0155285,
            0
          ],
          [
            107.5363125,
            -7.0154748,
            0
          ],
          [
            107.5360944,
            -7.0153288,
            0
          ],
          [
            107.535595,
            -7.015081,
            0
          ],
          [
            107.535563,
            -7.0150715,
            0
          ],
          [
            107.5355202,
            -7.0150602,
            0
          ],
          [
            107.5346895,
            -7.0147546,
            0
          ],
          [
            107.5346499,
            -7.014742,
            0
          ],
          [
            107.534612,
            -7.0147302,
            0
          ],
          [
            107.5342462,
            -7.0146628,
            0
          ],
          [
            107.5341816,
            -7.0146588,
            0
          ],
          [
            107.5341157,
            -7.0146487,
            0
          ],
          [
            107.5340411,
            -7.0146336,
            0
          ],
          [
            107.5339854,
            -7.0146118,
            0
          ],
          [
            107.5332882,
            -7.0142299,
            0
          ],
          [
            107.5331372,
            -7.014147,
            0
          ]
        ]
      },
      "properties": {
        "name": "Route Segment",
        "styleUrl": "#4956",
        "styleHash": "-1951f1ba",
        "stroke": "#00A64F",
        "stroke-opacity": 1,
        "stroke-width": 4
      },
      "id": "4955"
    },
    {
      "type": "Feature",
      "geometry": {
        "type": "LineString",
        "coordinates": [
          [
            107.5514907,
            -6.9395162,
            0
          ],
          [
            107.5503346,
            -6.9399222,
            0
          ]
        ]
      },
      "properties": {
        "name": "Jalan Tol Soreang–Pasirkoja",
        "styleUrl": "#4960",
        "styleHash": "-3c96e0ec",
        "stroke": "#00A64F",
        "stroke-opacity": 1,
        "stroke-width": 4
      },
      "id": "4959"
    },
    {
      "type": "Feature",
      "geometry": {
        "type": "LineString",
        "coordinates": [
          [
            107.5405641,
            -7.0321106,
            0
          ],
          [
            107.540692,
            -7.032053,
            0
          ],
          [
            107.5407453,
            -7.032019,
            0
          ],
          [
            107.5407915,
            -7.0319761,
            0
          ],
          [
            107.540859,
            -7.0319143,
            0
          ]
        ]
      },
      "properties": {
        "name": "Route Segment",
        "styleUrl": "#4964",
        "styleHash": "fb0030c",
        "stroke": "#00A64F",
        "stroke-opacity": 1,
        "stroke-width": 4
      },
      "id": "4963"
    },
    {
      "type": "Feature",
      "geometry": {
        "type": "LineString",
        "coordinates": [
          [
            107.5530673,
            -6.9387634,
            0
          ],
          [
            107.5528057,
            -6.9388985,
            0
          ]
        ]
      },
      "properties": {
        "name": "Jalan Tol Soreang–Pasirkoja",
        "styleUrl": "#4968",
        "styleHash": "5bf6e704",
        "stroke": "#00A64F",
        "stroke-opacity": 1,
        "stroke-width": 4
      },
      "id": "4967"
    },
    {
      "type": "Feature",
      "geometry": {
        "type": "LineString",
        "coordinates": [
          [
            107.5322717,
            -7.010177,
            0
          ],
          [
            107.5319815,
            -7.0110883,
            0
          ],
          [
            107.5313629,
            -7.0128309,
            0
          ]
        ]
      },
      "properties": {
        "name": "Jalan Tol Soreang–Pasirkoja",
        "styleUrl": "#4972",
        "styleHash": "38b1f7d2",
        "stroke": "#00A64F",
        "stroke-opacity": 1,
        "stroke-width": 4
      },
      "id": "4971"
    },
    {
      "type": "Feature",
      "geometry": {
        "type": "LineString",
        "coordinates": [
          [
            107.5290433,
            -7.020223,
            0
          ],
          [
            107.5292319,
            -7.0206847,
            0
          ],
          [
            107.5292915,
            -7.0208307,
            0
          ],
          [
            107.529373,
            -7.021029,
            0
          ]
        ]
      },
      "properties": {
        "name": "Jalan Al-Fathu",
        "styleUrl": "#4976",
        "styleHash": "-7b072436",
        "stroke": "#00A64F",
        "stroke-opacity": 1,
        "stroke-width": 4
      },
      "id": "4975"
    },
    {
      "type": "Feature",
      "geometry": {
        "type": "LineString",
        "coordinates": [
          [
            107.5870069,
            -6.9287166,
            0
          ],
          [
            107.5864622,
            -6.9279839,
            0
          ],
          [
            107.5857883,
            -6.9271971,
            0
          ],
          [
            107.5856065,
            -6.9269668,
            0
          ],
          [
            107.5855099,
            -6.9268473,
            0
          ]
        ]
      },
      "properties": {
        "name": "Jalan Peta",
        "styleUrl": "#4980",
        "styleHash": "61b3ec98",
        "stroke": "#00A64F",
        "stroke-opacity": 1,
        "stroke-width": 4
      },
      "id": "4979"
    },
    {
      "type": "Feature",
      "geometry": {
        "type": "LineString",
        "coordinates": [
          [
            107.5302928,
            -7.0232792,
            0
          ],
          [
            107.5303256,
            -7.0233668,
            0
          ],
          [
            107.5303409,
            -7.0234041,
            0
          ],
          [
            107.5304597,
            -7.0236932,
            0
          ],
          [
            107.5304761,
            -7.0237329,
            0
          ],
          [
            107.5304833,
            -7.0237506,
            0
          ],
          [
            107.5305458,
            -7.0239026,
            0
          ]
        ]
      },
      "properties": {
        "name": "Jalan Al-Fathu",
        "styleUrl": "#4984",
        "styleHash": "-52052f70",
        "stroke": "#00A64F",
        "stroke-opacity": 1,
        "stroke-width": 4
      },
      "id": "4983"
    },
    {
      "type": "Feature",
      "geometry": {
        "type": "LineString",
        "coordinates": [
          [
            107.5719439,
            -6.9314645,
            0
          ],
          [
            107.5715777,
            -6.9315085,
            0
          ],
          [
            107.5710193,
            -6.9316559,
            0
          ]
        ]
      },
      "properties": {
        "name": "Jalan Tol Soreang–Pasirkoja",
        "styleUrl": "#4988",
        "styleHash": "-5be4b78",
        "stroke": "#00A64F",
        "stroke-opacity": 1,
        "stroke-width": 4
      },
      "id": "4987"
    },
    {
      "type": "Feature",
      "geometry": {
        "type": "LineString",
        "coordinates": [
          [
            107.5398293,
            -7.0196986,
            0
          ],
          [
            107.5397853,
            -7.0196465,
            0
          ]
        ]
      },
      "properties": {
        "name": "Route Segment",
        "styleUrl": "#4992",
        "styleHash": "-29033aaa",
        "stroke": "#00A64F",
        "stroke-opacity": 1,
        "stroke-width": 4
      },
      "id": "4991"
    },
    {
      "type": "Feature",
      "geometry": {
        "type": "LineString",
        "coordinates": [
          [
            107.5290841,
            -7.0197549,
            0
          ],
          [
            107.5290477,
            -7.0199184,
            0
          ],
          [
            107.529038,
            -7.0199871,
            0
          ],
          [
            107.5290332,
            -7.020059,
            0
          ],
          [
            107.5290433,
            -7.020223,
            0
          ]
        ]
      },
      "properties": {
        "name": "Route Segment",
        "styleUrl": "#4996",
        "styleHash": "2343a94e",
        "stroke": "#00A64F",
        "stroke-opacity": 1,
        "stroke-width": 4
      },
      "id": "4995"
    },
    {
      "type": "Feature",
      "geometry": {
        "type": "LineString",
        "coordinates": [
          [
            107.5325631,
            -7.0093,
            0
          ],
          [
            107.5322717,
            -7.010177,
            0
          ]
        ]
      },
      "properties": {
        "name": "Jalan Tol Soreang–Pasirkoja",
        "styleUrl": "#5000",
        "styleHash": "-3dd388a4",
        "stroke": "#00A64F",
        "stroke-opacity": 1,
        "stroke-width": 4
      },
      "id": "4999"
    },
    {
      "type": "Feature",
      "geometry": {
        "type": "LineString",
        "coordinates": [
          [
            107.5855099,
            -6.9268473,
            0
          ],
          [
            107.5852085,
            -6.9269571,
            0
          ]
        ]
      },
      "properties": {
        "name": "Jalan Pasir Koja",
        "styleUrl": "#5004",
        "styleHash": "e735b54",
        "stroke": "#00A64F",
        "stroke-opacity": 1,
        "stroke-width": 4
      },
      "id": "5003"
    },
    {
      "type": "Feature",
      "geometry": {
        "type": "LineString",
        "coordinates": [
          [
            107.5930399,
            -6.9457531,
            0
          ],
          [
            107.592993,
            -6.9456782,
            0
          ],
          [
            107.5929837,
            -6.9456634,
            0
          ],
          [
            107.5929519,
            -6.9455681,
            0
          ],
          [
            107.5929354,
            -6.9455213,
            0
          ],
          [
            107.592865,
            -6.9452968,
            0
          ],
          [
            107.5928485,
            -6.9452341,
            0
          ],
          [
            107.5928394,
            -6.9450646,
            0
          ]
        ]
      },
      "properties": {
        "name": "Jalur Bus Kota",
        "styleUrl": "#5008",
        "styleHash": "5aba3f4c",
        "stroke": "#00A64F",
        "stroke-opacity": 1,
        "stroke-width": 4
      },
      "id": "5007"
    },
    {
      "type": "Feature",
      "geometry": {
        "type": "LineString",
        "coordinates": [
          [
            107.58773,
            -6.9298868,
            0
          ],
          [
            107.5876706,
            -6.9297926,
            0
          ],
          [
            107.5876218,
            -6.9297152,
            0
          ],
          [
            107.5873584,
            -6.9292693,
            0
          ],
          [
            107.5873385,
            -6.9292381,
            0
          ],
          [
            107.5872624,
            -6.9291184,
            0
          ],
          [
            107.5870069,
            -6.9287166,
            0
          ]
        ]
      },
      "properties": {
        "name": "Jalan Peta",
        "styleUrl": "#5012",
        "styleHash": "3775501a",
        "stroke": "#00A64F",
        "stroke-opacity": 1,
        "stroke-width": 4
      },
      "id": "5011"
    },
    {
      "type": "Feature",
      "geometry": {
        "type": "LineString",
        "coordinates": [
          [
            107.5783628,
            -6.9295826,
            0
          ],
          [
            107.5777554,
            -6.9298172,
            0
          ],
          [
            107.5775658,
            -6.9298904,
            0
          ],
          [
            107.5774475,
            -6.9299361,
            0
          ],
          [
            107.5763738,
            -6.9303407,
            0
          ]
        ]
      },
      "properties": {
        "name": "Jalan Pasir Koja",
        "styleUrl": "#5016",
        "styleHash": "-7c43cbee",
        "stroke": "#00A64F",
        "stroke-opacity": 1,
        "stroke-width": 4
      },
      "id": "5015"
    },
    {
      "type": "Feature",
      "geometry": {
        "type": "LineString",
        "coordinates": [
          [
            107.5759595,
            -6.9304856,
            0
          ],
          [
            107.5756757,
            -6.930606,
            0
          ]
        ]
      },
      "properties": {
        "name": "Jalan Tol Soreang–Pasirkoja",
        "styleUrl": "#5020",
        "styleHash": "607744e0",
        "stroke": "#00A64F",
        "stroke-opacity": 1,
        "stroke-width": 4
      },
      "id": "5019"
    },
    {
      "type": "Feature",
      "geometry": {
        "type": "LineString",
        "coordinates": [
          [
            107.5932425,
            -6.9458452,
            0
          ],
          [
            107.5932007,
            -6.9458395,
            0
          ],
          [
            107.5931256,
            -6.9458263,
            0
          ],
          [
            107.5930758,
            -6.9458011,
            0
          ],
          [
            107.5930399,
            -6.9457531,
            0
          ]
        ]
      },
      "properties": {
        "name": "Jalur Bus Kota",
        "styleUrl": "#5024",
        "styleHash": "-5341d728",
        "stroke": "#00A64F",
        "stroke-opacity": 1,
        "stroke-width": 4
      },
      "id": "5023"
    },
    {
      "type": "Feature",
      "geometry": {
        "type": "LineString",
        "coordinates": [
          [
            107.5928394,
            -6.9450646,
            0
          ],
          [
            107.5928649,
            -6.9448811,
            0
          ]
        ]
      },
      "properties": {
        "name": "Jalur Bus Kota",
        "styleUrl": "#5028",
        "styleHash": "-6faf330",
        "stroke": "#00A64F",
        "stroke-opacity": 1,
        "stroke-width": 4
      },
      "id": "5027"
    },
    {
      "type": "Feature",
      "geometry": {
        "type": "LineString",
        "coordinates": [
          [
            107.5916379,
            -6.9438582,
            0
          ],
          [
            107.5910845,
            -6.9435862,
            0
          ],
          [
            107.5910269,
            -6.9435481,
            0
          ]
        ]
      },
      "properties": {
        "name": "Jalan Keluar Terminal Leuwipanjang",
        "styleUrl": "#5032",
        "styleHash": "-2a3fe262",
        "stroke": "#00A64F",
        "stroke-opacity": 1,
        "stroke-width": 4
      },
      "id": "5031"
    },
    {
      "type": "Feature",
      "geometry": {
        "type": "LineString",
        "coordinates": [
          [
            107.5402532,
            -7.0202552,
            0
          ],
          [
            107.5402239,
            -7.0202089,
            0
          ]
        ]
      },
      "properties": {
        "name": "Route Segment",
        "styleUrl": "#5036",
        "styleHash": "22070196",
        "stroke": "#00A64F",
        "stroke-opacity": 1,
        "stroke-width": 4
      },
      "id": "5035"
    },
    {
      "type": "Feature",
      "geometry": {
        "type": "LineString",
        "coordinates": [
          [
            107.5313629,
            -7.0128309,
            0
          ],
          [
            107.5313243,
            -7.0129455,
            0
          ],
          [
            107.5312306,
            -7.0132506,
            0
          ]
        ]
      },
      "properties": {
        "name": "Jalan Tol Soreang–Pasir Koja",
        "styleUrl": "#5040",
        "styleHash": "-13ded9c",
        "stroke": "#00A64F",
        "stroke-opacity": 1,
        "stroke-width": 4
      },
      "id": "5039"
    },
    {
      "type": "Feature",
      "geometry": {
        "type": "LineString",
        "coordinates": [
          [
            107.5300075,
            -7.0170395,
            0
          ],
          [
            107.5293947,
            -7.0188618,
            0
          ],
          [
            107.5291163,
            -7.0196757,
            0
          ],
          [
            107.5290841,
            -7.0197549,
            0
          ]
        ]
      },
      "properties": {
        "name": "Jalan Tol Soreang–Pasir Koja",
        "styleUrl": "#5044",
        "styleHash": "4b08f65c",
        "stroke": "#00A64F",
        "stroke-opacity": 1,
        "stroke-width": 4
      },
      "id": "5043"
    },
    {
      "type": "Feature",
      "geometry": {
        "type": "LineString",
        "coordinates": [
          [
            107.540859,
            -7.0319143,
            0
          ],
          [
            107.540871,
            -7.0318694,
            0
          ],
          [
            107.5408746,
            -7.0318558,
            0
          ],
          [
            107.5409402,
            -7.0315904,
            0
          ],
          [
            107.5410099,
            -7.0313548,
            0
          ],
          [
            107.5412032,
            -7.0307741,
            0
          ]
        ]
      },
      "properties": {
        "name": "Route Segment",
        "styleUrl": "#5048",
        "styleHash": "-68b025ac",
        "stroke": "#00A64F",
        "stroke-opacity": 1,
        "stroke-width": 4
      },
      "id": "5047"
    },
    {
      "type": "Feature",
      "geometry": {
        "type": "LineString",
        "coordinates": [
          [
            107.5305458,
            -7.0239026,
            0
          ],
          [
            107.5305806,
            -7.0239887,
            0
          ]
        ]
      },
      "properties": {
        "name": "Route Segment",
        "styleUrl": "#5052",
        "styleHash": "740aeb22",
        "stroke": "#00A64F",
        "stroke-opacity": 1,
        "stroke-width": 4
      },
      "id": "5051"
    }
  ]
}