{
  "type": "FeatureCollection",
  "features": [
    {
      "type": "Feature",
      "geometry": {
        "type": "Point",
        "coordinates": [
          107.5934341,
          -6.9468277,
          0
        ]
      },
      "properties": {
        "name": "Leuwipanjang Soekarno Hatta",
        "styleUrl": "#5061",
        "styleHash": "-3a24ef7a"
      },
      "id": "5060"
    },
    {
      "type": "Feature",
      "geometry": {
        "type": "Point",
        "coordinates": [
          107.576671,
          -6.9323901,
          0
        ]
      },
      "properties": {
        "name": "Sumber Sari Junction",
        "styleUrl": "#5066",
        "styleHash": "-6b5b8795"
      },
      "id": "5065"
    },
    {
      "type": "Feature",
      "geometry": {
        "type": "Point",
        "coordinates": [
          107.5831212,
          -6.9419015,
          0
        ]
      },
      "properties": {
        "name": "Pasar Induk Caringin",
        "styleUrl": "#5071",
        "styleHash": "-4ddd1bb"
      },
      "id": "5070"
    },
    {
      "type": "Feature",
      "geometry": {
        "type": "Point",
        "coordinates": [
          107.530779,
          -7.0141857,
          0
        ]
      },
      "properties": {
        "name": "Hotel Soreang B",
        "styleUrl": "#5076",
        "styleHash": "-361469d6"
      },
      "id": "5075"
    },
    {
      "type": "Feature",
      "geometry": {
        "type": "Point",
        "coordinates": [
          107.5932425,
          -6.9458452,
          0
        ]
      },
      "properties": {
        "name": "Terminal Leuwipanjang",
        "styleUrl": "#5081",
        "styleHash": "30694c04"
      },
      "id": "5080"
    },
    {
      "type": "Feature",
      "geometry": {
        "type": "LineString",
        "coordinates": [
          [
            107.5606012,
            -6.935005,
            0
          ],
          [
            107.5627029,
            -6.9339859,
            0
          ],
          [
            107.5667381,
            -6.9320309,
            0
          ],
          [
            107.5674939,
            -6.9317341,
            0
          ],
          [
            107.5681123,
            -6.9315698,
            0
          ],
          [
            107.5686872,
            -6.931463,
            0
          ],
          [
            107.5691137,
            -6.9314193,
            0
          ],
          [
            107.5693822,
            -6.9314079,
            0
          ]
        ]
      },
      "properties": {
        "name": "Jalan Tol Soreang–Pasirkoja",
        "styleUrl": "#5086",
        "styleHash": "-523dfca0",
        "stroke": "#00A64F",
        "stroke-opacity": 1,
        "stroke-width": 4
      },
      "id": "5085"
    },
    {
      "type": "Feature",
      "geometry": {
        "type": "LineString",
        "coordinates": [
          [
            107.5863956,
            -6.9441848,
            0
          ],
          [
            107.5868373,
            -6.9443439,
            0
          ],
          [
            107.5870102,
            -6.9443993,
            0
          ],
          [
            107.5876247,
            -6.9446579,
            0
          ],
          [
            107.5878344,
            -6.9447464,
            0
          ],
          [
            107.5880579,
            -6.9448406,
            0
          ],
          [
            107.5883073,
            -6.9449457,
            0
          ],
          [
            107.5888658,
            -6.9451811,
            0
          ]
        ]
      },
      "properties": {
        "name": "Jalan Soekarno-Hatta",
        "styleUrl": "#5090",
        "styleHash": "-7582ebd2",
        "stroke": "#00A64F",
        "stroke-opacity": 1,
        "stroke-width": 4
      },
      "id": "5089"
    },
    {
      "type": "Feature",
      "geometry": {
        "type": "LineString",
        "coordinates": [
          [
            107.5905372,
            -6.9458885,
            0
          ],
          [
            107.5906174,
            -6.9459184,
            0
          ],
          [
            107.5908186,
            -6.9459976,
            0
          ],
          [
            107.5909454,
            -6.9460471,
            0
          ],
          [
            107.5912869,
            -6.9461769,
            0
          ],
          [
            107.5915135,
            -6.946263,
            0
          ],
          [
            107.5919633,
            -6.946418,
            0
          ],
          [
            107.5920057,
            -6.9464327,
            0
          ]
        ]
      },
      "properties": {
        "name": "Jalan Soekarno-Hatta",
        "styleUrl": "#5094",
        "styleHash": "-293c07da",
        "stroke": "#00A64F",
        "stroke-opacity": 1,
        "stroke-width": 4
      },
      "id": "5093"
    },
    {
      "type": "Feature",
      "geometry": {
        "type": "LineString",
        "coordinates": [
          [
            107.5760593,
            -6.9304537,
            0
          ],
          [
            107.5761295,
            -6.9307327,
            0
          ]
        ]
      },
      "properties": {
        "name": "Jalan Soekarno-Hatta",
        "styleUrl": "#5098",
        "styleHash": "230adc1e",
        "stroke": "#00A64F",
        "stroke-opacity": 1,
        "stroke-width": 4
      },
      "id": "5097"
    },
    {
      "type": "Feature",
      "geometry": {
        "type": "LineString",
        "coordinates": [
          [
            107.5946801,
            -6.9470993,
            0
          ],
          [
            107.5949015,
            -6.9470904,
            0
          ],
          [
            107.5949654,
            -6.9470873,
            0
          ],
          [
            107.5949874,
            -6.9470844,
            0
          ],
          [
            107.5950189,
            -6.9470765,
            0
          ],
          [
            107.5950591,
            -6.9470659,
            0
          ],
          [
            107.5950873,
            -6.9470551,
            0
          ],
          [
            107.5951121,
            -6.9470451,
            0
          ],
          [
            107.5951365,
            -6.9470303,
            0
          ],
          [
            107.5951489,
            -6.9470195,
            0
          ],
          [
            107.5951597,
            -6.9470058,
            0
          ],
          [
            107.5951778,
            -6.9469812,
            0
          ],
          [
            107.5951852,
            -6.9469692,
            0
          ],
          [
            107.595202,
            -6.9469407,
            0
          ],
          [
            107.5952184,
            -6.9469031,
            0
          ]
        ]
      },
      "properties": {
        "name": "Route Segment",
        "styleUrl": "#5102",
        "styleHash": "7dd75ad6",
        "stroke": "#00A64F",
        "stroke-opacity": 1,
        "stroke-width": 4
      },
      "id": "5101"
    },
    {
      "type": "Feature",
      "geometry": {
        "type": "LineString",
        "coordinates": [
          [
            107.5936967,
            -6.9459132,
            0
          ],
          [
            107.5936301,
            -6.9459043,
            0
          ],
          [
            107.5932425,
            -6.9458452,
            0
          ]
        ]
      },
      "properties": {
        "name": "Jalur Bus Kota",
        "styleUrl": "#5106",
        "styleHash": "-35e1c132",
        "stroke": "#00A64F",
        "stroke-opacity": 1,
        "stroke-width": 4
      },
      "id": "5105"
    },
    {
      "type": "Feature",
      "geometry": {
        "type": "LineString",
        "coordinates": [
          [
            107.5761295,
            -6.9307327,
            0
          ],
          [
            107.5762615,
            -6.9311707,
            0
          ],
          [
            107.5763049,
            -6.9313117,
            0
          ],
          [
            107.5765033,
            -6.9319558,
            0
          ],
          [
            107.5765867,
            -6.9321758,
            0
          ],
          [
            107.5766269,
            -6.9322818,
            0
          ],
          [
            107.576671,
            -6.9323901,
            0
          ],
          [
            107.5767329,
            -6.9325425,
            0
          ],
          [
            107.576819,
            -6.9327555,
            0
          ],
          [
            107.576953,
            -6.9330874,
            0
          ],
          [
            107.5770589,
            -6.933306,
            0
          ],
          [
            107.5771271,
            -6.9334469,
            0
          ],
          [
            107.5773591,
            -6.9339262,
            0
          ],
          [
            107.5774678,
            -6.9341351,
            0
          ],
          [
            107.577519,
            -6.9342396,
            0
          ],
          [
            107.5778296,
            -6.9347499,
            0
          ],
          [
            107.5783524,
            -6.9355244,
            0
          ],
          [
            107.578457,
            -6.9356736,
            0
          ],
          [
            107.5788041,
            -6.9361935,
            0
          ],
          [
            107.5788416,
            -6.9362517,
            0
          ],
          [
            107.5795763,
            -6.937339,
            0
          ],
          [
            107.5796223,
            -6.9374056,
            0
          ],
          [
            107.5796859,
            -6.937498,
            0
          ],
          [
            107.5797906,
            -6.9376502,
            0
          ],
          [
            107.579936,
            -6.937863,
            0
          ],
          [
            107.5802287,
            -6.9382866,
            0
          ],
          [
            107.5803153,
            -6.9384059,
            0
          ],
          [
            107.5803728,
            -6.9384851,
            0
          ],
          [
            107.5804612,
            -6.9386169,
            0
          ],
          [
            107.5805598,
            -6.9387753,
            0
          ],
          [
            107.5806433,
            -6.9388996,
            0
          ],
          [
            107.5807733,
            -6.9390932,
            0
          ],
          [
            107.5807999,
            -6.9391335,
            0
          ],
          [
            107.5808244,
            -6.9391671,
            0
          ],
          [
            107.580938,
            -6.9393311,
            0
          ],
          [
            107.5810191,
            -6.9394536,
            0
          ],
          [
            107.5812002,
            -6.9397265,
            0
          ],
          [
            107.5815743,
            -6.9402311,
            0
          ],
          [
            107.5817044,
            -6.9404068,
            0
          ],
          [
            107.5818291,
            -6.9405652,
            0
          ],
          [
            107.5820397,
            -6.9408049,
            0
          ],
          [
            107.5823106,
            -6.941111,
            0
          ]
        ]
      },
      "properties": {
        "name": "Jalan Soekarno-Hatta",
        "styleUrl": "#5110",
        "styleHash": "-5926b064",
        "stroke": "#00A64F",
        "stroke-opacity": 1,
        "stroke-width": 4
      },
      "id": "5109"
    },
    {
      "type": "Feature",
      "geometry": {
        "type": "LineString",
        "coordinates": [
          [
            107.542689,
            -6.9608414,
            0
          ],
          [
            107.5425415,
            -6.9604048,
            0
          ],
          [
            107.5424811,
            -6.9602038,
            0
          ],
          [
            107.5424168,
            -6.9599668,
            0
          ],
          [
            107.5423417,
            -6.9595662,
            0
          ],
          [
            107.5422867,
            -6.9591628,
            0
          ],
          [
            107.5422652,
            -6.9588952,
            0
          ],
          [
            107.5422464,
            -6.9585717,
            0
          ],
          [
            107.5422612,
            -6.9582496,
            0
          ],
          [
            107.542276,
            -6.9580353,
            0
          ],
          [
            107.5423255,
            -6.957536,
            0
          ],
          [
            107.5423832,
            -6.9572418,
            0
          ],
          [
            107.5424516,
            -6.956957,
            0
          ],
          [
            107.542571,
            -6.9565136,
            0
          ],
          [
            107.5428315,
            -6.9557674,
            0
          ],
          [
            107.5431553,
            -6.9548423,
            0
          ],
          [
            107.5456247,
            -6.9476902,
            0
          ],
          [
            107.546048,
            -6.9465006,
            0
          ],
          [
            107.5467029,
            -6.9446096,
            0
          ],
          [
            107.5472796,
            -6.942863,
            0
          ],
          [
            107.5474338,
            -6.9423678,
            0
          ],
          [
            107.5475129,
            -6.9421148,
            0
          ],
          [
            107.5475681,
            -6.9419709,
            0
          ]
        ]
      },
      "properties": {
        "name": "Jalan Tol Soreang–Pasirkoja",
        "styleUrl": "#5114",
        "styleHash": "-cdfcc6c",
        "stroke": "#00A64F",
        "stroke-opacity": 1,
        "stroke-width": 4
      },
      "id": "5113"
    },
    {
      "type": "Feature",
      "geometry": {
        "type": "LineString",
        "coordinates": [
          [
            107.5495588,
            -6.9397831,
            0
          ],
          [
            107.5499953,
            -6.9395269,
            0
          ]
        ]
      },
      "properties": {
        "name": "Jalan Tol Soreang–Pasirkoja",
        "styleUrl": "#5118",
        "styleHash": "3f67178c",
        "stroke": "#00A64F",
        "stroke-opacity": 1,
        "stroke-width": 4
      },
      "id": "5117"
    },
    {
      "type": "Feature",
      "geometry": {
        "type": "LineString",
        "coordinates": [
          [
            107.5570704,
            -6.9366853,
            0
          ],
          [
            107.5602849,
            -6.9351615,
            0
          ]
        ]
      },
      "properties": {
        "name": "Jalan Tol Soreang–Pasirkoja",
        "styleUrl": "#5122",
        "styleHash": "1c22285a",
        "stroke": "#00A64F",
        "stroke-opacity": 1,
        "stroke-width": 4
      },
      "id": "5121"
    },
    {
      "type": "Feature",
      "geometry": {
        "type": "LineString",
        "coordinates": [
          [
            107.5354867,
            -6.9947733,
            0
          ],
          [
            107.5357139,
            -6.9942631,
            0
          ],
          [
            107.5358319,
            -6.9940023,
            0
          ],
          [
            107.5359794,
            -6.9937173,
            0
          ],
          [
            107.5365105,
            -6.9928229,
            0
          ],
          [
            107.5370218,
            -6.9920017,
            0
          ],
          [
            107.5375893,
            -6.9911243,
            0
          ],
          [
            107.5384004,
            -6.989778,
            0
          ],
          [
            107.5386697,
            -6.989354,
            0
          ],
          [
            107.5393394,
            -6.988317,
            0
          ],
          [
            107.5397077,
            -6.9877486,
            0
          ],
          [
            107.5400598,
            -6.9871902,
            0
          ],
          [
            107.5416327,
            -6.9847133,
            0
          ],
          [
            107.5421069,
            -6.9838936,
            0
          ],
          [
            107.5424006,
            -6.9833598,
            0
          ],
          [
            107.542648,
            -6.982873,
            0
          ],
          [
            107.5432884,
            -6.9815374,
            0
          ],
          [
            107.5436143,
            -6.9807574,
            0
          ],
          [
            107.5438115,
            -6.9802741,
            0
          ],
          [
            107.5439643,
            -6.9798734,
            0
          ],
          [
            107.5442447,
            -6.9791014,
            0
          ],
          [
            107.5445036,
            -6.9783121,
            0
          ],
          [
            107.5446001,
            -6.9780018,
            0
          ],
          [
            107.5447315,
            -6.9775692,
            0
          ],
          [
            107.5449205,
            -6.9768824,
            0
          ],
          [
            107.545111,
            -6.9761143,
            0
          ],
          [
            107.5455254,
            -6.9743598,
            0
          ],
          [
            107.5455998,
            -6.9740765,
            0
          ],
          [
            107.5456863,
            -6.9737474,
            0
          ],
          [
            107.5457561,
            -6.9734931,
            0
          ],
          [
            107.5458472,
            -6.9731511,
            0
          ],
          [
            107.5459519,
            -6.9726346,
            0
          ],
          [
            107.546023,
            -6.9722446,
            0
          ]
        ]
      },
      "properties": {
        "name": "Jalan Tol Soreang–Pasirkoja",
        "styleUrl": "#5126",
        "styleHash": "68690c52",
        "stroke": "#00A64F",
        "stroke-opacity": 1,
        "stroke-width": 4
      },
      "id": "5125"
    },
    {
      "type": "Feature",
      "geometry": {
        "type": "LineString",
        "coordinates": [
          [
            107.5323383,
            -7.0095793,
            0
          ],
          [
            107.5327084,
            -7.0085493,
            0
          ],
          [
            107.5329991,
            -7.0075471,
            0
          ],
          [
            107.5332612,
            -7.0064294,
            0
          ],
          [
            107.5333565,
            -7.0057841,
            0
          ],
          [
            107.53396,
            -7.0018411,
            0
          ]
        ]
      },
      "properties": {
        "name": "Jalan Tol Soreang–Pasirkoja",
        "styleUrl": "#5130",
        "styleHash": "45241d20",
        "stroke": "#00A64F",
        "stroke-opacity": 1,
        "stroke-width": 4
      },
      "id": "5129"
    },
    {
      "type": "Feature",
      "geometry": {
        "type": "LineString",
        "coordinates": [
          [
            107.5312589,
            -7.0127591,
            0
          ],
          [
            107.5313315,
            -7.0125519,
            0
          ]
        ]
      },
      "properties": {
        "name": "Jalan Tol Soreang–Pasirkoja",
        "styleUrl": "#5134",
        "styleHash": "-6e94fee8",
        "stroke": "#00A64F",
        "stroke-opacity": 1,
        "stroke-width": 4
      },
      "id": "5133"
    },
    {
      "type": "Feature",
      "geometry": {
        "type": "LineString",
        "coordinates": [
          [
            107.53396,
            -7.0018411,
            0
          ],
          [
            107.5340563,
            -7.0011717,
            0
          ]
        ]
      },
      "properties": {
        "name": "Jalan Tol Soreang–Pasirkoja",
        "styleUrl": "#5138",
        "styleHash": "-224e1af0",
        "stroke": "#00A64F",
        "stroke-opacity": 1,
        "stroke-width": 4
      },
      "id": "5137"
    },
    {
      "type": "Feature",
      "geometry": {
        "type": "LineString",
        "coordinates": [
          [
            107.5534755,
            -6.9382022,
            0
          ],
          [
            107.5537985,
            -6.9381226,
            0
          ],
          [
            107.5541581,
            -6.9380187,
            0
          ],
          [
            107.5548891,
            -6.9377492,
            0
          ]
        ]
      },
      "properties": {
        "name": "Jalan Tol Soreang–Pasirkoja",
        "styleUrl": "#5142",
        "styleHash": "-45930a22",
        "stroke": "#00A64F",
        "stroke-opacity": 1,
        "stroke-width": 4
      },
      "id": "5141"
    },
    {
      "type": "Feature",
      "geometry": {
        "type": "LineString",
        "coordinates": [
          [
            107.5499953,
            -6.9395269,
            0
          ],
          [
            107.5503011,
            -6.9393498,
            0
          ],
          [
            107.5506685,
            -6.9391234,
            0
          ],
          [
            107.5510373,
            -6.9389198,
            0
          ],
          [
            107.5515362,
            -6.9387188,
            0
          ],
          [
            107.5518313,
            -6.9386242,
            0
          ],
          [
            107.552074,
            -6.9385577,
            0
          ],
          [
            107.5526212,
            -6.9384166,
            0
          ],
          [
            107.5534755,
            -6.9382022,
            0
          ]
        ]
      },
      "properties": {
        "name": "Jalan Tol Soreang–Pasirkoja",
        "styleUrl": "#5146",
        "styleHash": "6b3d9d6",
        "stroke": "#00A64F",
        "stroke-opacity": 1,
        "stroke-width": 4
      },
      "id": "5145"
    },
    {
      "type": "Feature",
      "geometry": {
        "type": "LineString",
        "coordinates": [
          [
            107.546023,
            -6.9722446,
            0
          ],
          [
            107.5461174,
            -6.9713899,
            0
          ],
          [
            107.5461263,
            -6.9712196,
            0
          ],
          [
            107.546162,
            -6.9707987,
            0
          ]
        ]
      },
      "properties": {
        "name": "Jalan Tol Soreang–Pasirkoja",
        "styleUrl": "#5150",
        "styleHash": "-1c91155c",
        "stroke": "#00A64F",
        "stroke-opacity": 1,
        "stroke-width": 4
      },
      "id": "5149"
    },
    {
      "type": "Feature",
      "geometry": {
        "type": "LineString",
        "coordinates": [
          [
            107.5602849,
            -6.9351615,
            0
          ],
          [
            107.5606012,
            -6.935005,
            0
          ]
        ]
      },
      "properties": {
        "name": "Jalan Tol Soreang–Pasirkoja",
        "styleUrl": "#5154",
        "styleHash": "2fb5ce9c",
        "stroke": "#00A64F",
        "stroke-opacity": 1,
        "stroke-width": 4
      },
      "id": "5153"
    },
    {
      "type": "Feature",
      "geometry": {
        "type": "LineString",
        "coordinates": [
          [
            107.5475681,
            -6.9419709,
            0
          ],
          [
            107.5477235,
            -6.9415397,
            0
          ],
          [
            107.5479059,
            -6.941178,
            0
          ],
          [
            107.5480387,
            -6.9409566,
            0
          ],
          [
            107.5482296,
            -6.9407243,
            0
          ],
          [
            107.5484061,
            -6.9405519,
            0
          ],
          [
            107.548608,
            -6.9404063,
            0
          ],
          [
            107.5490698,
            -6.9401114,
            0
          ],
          [
            107.5493641,
            -6.9399178,
            0
          ],
          [
            107.5495588,
            -6.9397831,
            0
          ]
        ]
      },
      "properties": {
        "name": "Jalan Tol Soreang–Pasirkoja",
        "styleUrl": "#5158",
        "styleHash": "7bfcb294",
        "stroke": "#00A64F",
        "stroke-opacity": 1,
        "stroke-width": 4
      },
      "id": "5157"
    },
    {
      "type": "Feature",
      "geometry": {
        "type": "LineString",
        "coordinates": [
          [
            107.5353934,
            -6.9950152,
            0
          ],
          [
            107.5354867,
            -6.9947733,
            0
          ]
        ]
      },
      "properties": {
        "name": "Jalan Tol Soreang–Pasirkoja",
        "styleUrl": "#5162",
        "styleHash": "58b7c362",
        "stroke": "#00A64F",
        "stroke-opacity": 1,
        "stroke-width": 4
      },
      "id": "5161"
    },
    {
      "type": "Feature",
      "geometry": {
        "type": "LineString",
        "coordinates": [
          [
            107.5347798,
            -6.9968331,
            0
          ],
          [
            107.5350514,
            -6.9958978,
            0
          ],
          [
            107.5353934,
            -6.9950152,
            0
          ]
        ]
      },
      "properties": {
        "name": "Jalan Tol Soreang–Pasirkoja",
        "styleUrl": "#5166",
        "styleHash": "-5b0158a6",
        "stroke": "#00A64F",
        "stroke-opacity": 1,
        "stroke-width": 4
      },
      "id": "5165"
    },
    {
      "type": "Feature",
      "geometry": {
        "type": "LineString",
        "coordinates": [
          [
            107.5693822,
            -6.9314079,
            0
          ],
          [
            107.5705886,
            -6.9314328,
            0
          ]
        ]
      },
      "properties": {
        "name": "Jalan Tol Soreang–Pasirkoja",
        "styleUrl": "#5170",
        "styleHash": "-7e4647d8",
        "stroke": "#00A64F",
        "stroke-opacity": 1,
        "stroke-width": 4
      },
      "id": "5169"
    },
    {
      "type": "Feature",
      "geometry": {
        "type": "LineString",
        "coordinates": [
          [
            107.5707265,
            -6.9314331,
            0
          ],
          [
            107.5717838,
            -6.9313641,
            0
          ]
        ]
      },
      "properties": {
        "name": "Jalan Tol Soreang–Pasirkoja",
        "styleUrl": "#5174",
        "styleHash": "-31ff63e0",
        "stroke": "#00A64F",
        "stroke-opacity": 1,
        "stroke-width": 4
      },
      "id": "5173"
    },
    {
      "type": "Feature",
      "geometry": {
        "type": "LineString",
        "coordinates": [
          [
            107.5705886,
            -6.9314328,
            0
          ],
          [
            107.5706235,
            -6.9314329,
            0
          ],
          [
            107.5707265,
            -6.9314331,
            0
          ]
        ]
      },
      "properties": {
        "name": "Jalan Tol Soreang–Pasirkoja",
        "styleUrl": "#5178",
        "styleHash": "1a478018",
        "stroke": "#00A64F",
        "stroke-opacity": 1,
        "stroke-width": 4
      },
      "id": "5177"
    },
    {
      "type": "Feature",
      "geometry": {
        "type": "LineString",
        "coordinates": [
          [
            107.5347076,
            -6.9971326,
            0
          ],
          [
            107.5347798,
            -6.9968331,
            0
          ]
        ]
      },
      "properties": {
        "name": "Jalan Tol Soreang–Pasirkoja",
        "styleUrl": "#5182",
        "styleHash": "-8fd6f1a",
        "stroke": "#00A64F",
        "stroke-opacity": 1,
        "stroke-width": 4
      },
      "id": "5181"
    },
    {
      "type": "Feature",
      "geometry": {
        "type": "LineString",
        "coordinates": [
          [
            107.5340563,
            -7.0011717,
            0
          ],
          [
            107.5341797,
            -7.0003239,
            0
          ],
          [
            107.5342703,
            -6.9996224,
            0
          ],
          [
            107.5347076,
            -6.9971326,
            0
          ]
        ]
      },
      "properties": {
        "name": "Jalan Tol Soreang–Pasirkoja",
        "styleUrl": "#5186",
        "styleHash": "434974de",
        "stroke": "#00A64F",
        "stroke-opacity": 1,
        "stroke-width": 4
      },
      "id": "5185"
    },
    {
      "type": "Feature",
      "geometry": {
        "type": "LineString",
        "coordinates": [
          [
            107.5831212,
            -6.9419015,
            0
          ],
          [
            107.5831836,
            -6.9419591,
            0
          ],
          [
            107.5834599,
            -6.9422141,
            0
          ],
          [
            107.5835578,
            -6.942293,
            0
          ],
          [
            107.583608,
            -6.942339,
            0
          ],
          [
            107.5838985,
            -6.9425994,
            0
          ],
          [
            107.5842331,
            -6.9428621,
            0
          ],
          [
            107.5842817,
            -6.9429003,
            0
          ],
          [
            107.5844282,
            -6.9430135,
            0
          ]
        ]
      },
      "properties": {
        "name": "Jalan Soekarno-Hatta",
        "styleUrl": "#5190",
        "styleHash": "200485ac",
        "stroke": "#00A64F",
        "stroke-opacity": 1,
        "stroke-width": 4
      },
      "id": "5189"
    },
    {
      "type": "Feature",
      "geometry": {
        "type": "LineString",
        "coordinates": [
          [
            107.542925,
            -6.9613859,
            0
          ],
          [
            107.542689,
            -6.9608414,
            0
          ]
        ]
      },
      "properties": {
        "name": "Jalan Tol Soreang–Pasirkoja",
        "styleUrl": "#5194",
        "styleHash": "6c4b69a4",
        "stroke": "#00A64F",
        "stroke-opacity": 1,
        "stroke-width": 4
      },
      "id": "5193"
    },
    {
      "type": "Feature",
      "geometry": {
        "type": "LineString",
        "coordinates": [
          [
            107.546162,
            -6.9707987,
            0
          ],
          [
            107.5461659,
            -6.9707311,
            0
          ],
          [
            107.5461718,
            -6.9697199,
            0
          ],
          [
            107.546137,
            -6.969292,
            0
          ],
          [
            107.5461008,
            -6.9689446,
            0
          ],
          [
            107.5460511,
            -6.9685798,
            0
          ],
          [
            107.5459887,
            -6.968244,
            0
          ],
          [
            107.545817,
            -6.9675663,
            0
          ],
          [
            107.5456962,
            -6.9670944,
            0
          ],
          [
            107.5455147,
            -6.9665089,
            0
          ],
          [
            107.5454367,
            -6.9662881,
            0
          ],
          [
            107.5453254,
            -6.9659963,
            0
          ],
          [
            107.5451198,
            -6.9655136,
            0
          ],
          [
            107.5450102,
            -6.9652798,
            0
          ],
          [
            107.5448047,
            -6.9648761,
            0
          ],
          [
            107.5445369,
            -6.9643624,
            0
          ],
          [
            107.5441616,
            -6.9636756,
            0
          ],
          [
            107.5434776,
            -6.9624163,
            0
          ],
          [
            107.5432402,
            -6.9619823,
            0
          ],
          [
            107.5430597,
            -6.9616468,
            0
          ],
          [
            107.542925,
            -6.9613859,
            0
          ]
        ]
      },
      "properties": {
        "name": "Jalan Tol Soreang–Pasirkoja",
        "styleUrl": "#5198",
        "styleHash": "-476db264",
        "stroke": "#00A64F",
        "stroke-opacity": 1,
        "stroke-width": 4
      },
      "id": "5197"
    },
    {
      "type": "Feature",
      "geometry": {
        "type": "LineString",
        "coordinates": [
          [
            107.5313315,
            -7.0125519,
            0
          ],
          [
            107.5318665,
            -7.0110518,
            0
          ],
          [
            107.5323383,
            -7.0095793,
            0
          ]
        ]
      },
      "properties": {
        "name": "Jalan Tol Soreang–Pasirkoja",
        "styleUrl": "#5202",
        "styleHash": "135ecc54",
        "stroke": "#00A64F",
        "stroke-opacity": 1,
        "stroke-width": 4
      },
      "id": "5201"
    },
    {
      "type": "Feature",
      "geometry": {
        "type": "LineString",
        "coordinates": [
          [
            107.5897693,
            -6.9455492,
            0
          ],
          [
            107.5898471,
            -6.9455853,
            0
          ],
          [
            107.5899816,
            -6.945652,
            0
          ]
        ]
      },
      "properties": {
        "name": "Jalan Soekarno-Hatta",
        "styleUrl": "#5206",
        "styleHash": "5fa5b04c",
        "stroke": "#00A64F",
        "stroke-opacity": 1,
        "stroke-width": 4
      },
      "id": "5205"
    },
    {
      "type": "Feature",
      "geometry": {
        "type": "LineString",
        "coordinates": [
          [
            107.5952184,
            -6.9469031,
            0
          ],
          [
            107.5952459,
            -6.9466699,
            0
          ],
          [
            107.5952669,
            -6.9462117,
            0
          ],
          [
            107.595271,
            -6.9461694,
            0
          ],
          [
            107.5952757,
            -6.9461131,
            0
          ],
          [
            107.5952807,
            -6.9460535,
            0
          ],
          [
            107.5952859,
            -6.9459928,
            0
          ],
          [
            107.595295,
            -6.9458786,
            0
          ]
        ]
      },
      "properties": {
        "name": "Jalan Leuwi Panjang",
        "styleUrl": "#5210",
        "styleHash": "3c60c11a",
        "stroke": "#00A64F",
        "stroke-opacity": 1,
        "stroke-width": 4
      },
      "id": "5209"
    },
    {
      "type": "Feature",
      "geometry": {
        "type": "LineString",
        "coordinates": [
          [
            107.5548891,
            -6.9377492,
            0
          ],
          [
            107.5570704,
            -6.9366853,
            0
          ]
        ]
      },
      "properties": {
        "name": "Jalan Tol Soreang–Pasirkoja",
        "styleUrl": "#5214",
        "styleHash": "-77585aee",
        "stroke": "#00A64F",
        "stroke-opacity": 1,
        "stroke-width": 4
      },
      "id": "5213"
    },
    {
      "type": "Feature",
      "geometry": {
        "type": "LineString",
        "coordinates": [
          [
            107.575943,
            -6.930415,
            0
          ],
          [
            107.5760414,
            -6.9303848,
            0
          ]
        ]
      },
      "properties": {
        "name": "Route Segment",
        "styleUrl": "#5218",
        "styleHash": "-2b1176f6",
        "stroke": "#00A64F",
        "stroke-opacity": 1,
        "stroke-width": 4
      },
      "id": "5217"
    },
    {
      "type": "Feature",
      "geometry": {
        "type": "LineString",
        "coordinates": [
          [
            107.5760414,
            -6.9303848,
            0
          ],
          [
            107.5760593,
            -6.9304537,
            0
          ]
        ]
      },
      "properties": {
        "name": "Jalan Soekarno-Hatta",
        "styleUrl": "#5222",
        "styleHash": "-4e566628",
        "stroke": "#00A64F",
        "stroke-opacity": 1,
        "stroke-width": 4
      },
      "id": "5221"
    },
    {
      "type": "Feature",
      "geometry": {
        "type": "LineString",
        "coordinates": [
          [
            107.5894259,
            -6.945408,
            0
          ],
          [
            107.5896531,
            -6.9454988,
            0
          ],
          [
            107.5897088,
            -6.945521,
            0
          ]
        ]
      },
      "properties": {
        "name": "Jalan Soekarno-Hatta",
        "styleUrl": "#5226",
        "styleHash": "-20f8230",
        "stroke": "#00A64F",
        "stroke-opacity": 1,
        "stroke-width": 4
      },
      "id": "5225"
    },
    {
      "type": "Feature",
      "geometry": {
        "type": "LineString",
        "coordinates": [
          [
            107.5312215,
            -7.0128722,
            0
          ],
          [
            107.5312589,
            -7.0127591,
            0
          ]
        ]
      },
      "properties": {
        "name": "Jalan Tol Soreang–Pasir Koja",
        "styleUrl": "#5230",
        "styleHash": "-25547162",
        "stroke": "#00A64F",
        "stroke-opacity": 1,
        "stroke-width": 4
      },
      "id": "5229"
    },
    {
      "type": "Feature",
      "geometry": {
        "type": "LineString",
        "coordinates": [
          [
            107.5717838,
            -6.9313641,
            0
          ],
          [
            107.572432,
            -6.9313474,
            0
          ],
          [
            107.5730325,
            -6.9313066,
            0
          ],
          [
            107.5734019,
            -6.9312666,
            0
          ],
          [
            107.5737087,
            -6.9312089,
            0
          ],
          [
            107.5740081,
            -6.9311202,
            0
          ],
          [
            107.5744168,
            -6.9309985,
            0
          ],
          [
            107.5752602,
            -6.9306703,
            0
          ],
          [
            107.5755067,
            -6.9305697,
            0
          ]
        ]
      },
      "properties": {
        "name": "Jalan Tol Soreang–Pasirkoja",
        "styleUrl": "#5234",
        "styleHash": "26f27296",
        "stroke": "#00A64F",
        "stroke-opacity": 1,
        "stroke-width": 4
      },
      "id": "5233"
    },
    {
      "type": "Feature",
      "geometry": {
        "type": "LineString",
        "coordinates": [
          [
            107.5755067,
            -6.9305697,
            0
          ],
          [
            107.5758318,
            -6.9304529,
            0
          ],
          [
            107.575943,
            -6.930415,
            0
          ]
        ]
      },
      "properties": {
        "name": "Jalan Tol Soreang–Pasirkoja",
        "styleUrl": "#5238",
        "styleHash": "7339568e",
        "stroke": "#00A64F",
        "stroke-opacity": 1,
        "stroke-width": 4
      },
      "id": "5237"
    },
    {
      "type": "Feature",
      "geometry": {
        "type": "LineString",
        "coordinates": [
          [
            107.5849105,
            -6.9433545,
            0
          ],
          [
            107.5850407,
            -6.9434372,
            0
          ],
          [
            107.5853375,
            -6.9436258,
            0
          ],
          [
            107.58577,
            -6.9438614,
            0
          ],
          [
            107.5860174,
            -6.9439945,
            0
          ],
          [
            107.586299,
            -6.9441384,
            0
          ],
          [
            107.5863956,
            -6.9441848,
            0
          ]
        ]
      },
      "properties": {
        "name": "Jalan Soekarno-Hatta",
        "styleUrl": "#5242",
        "styleHash": "4ff4675c",
        "stroke": "#00A64F",
        "stroke-opacity": 1,
        "stroke-width": 4
      },
      "id": "5241"
    },
    {
      "type": "Feature",
      "geometry": {
        "type": "LineString",
        "coordinates": [
          [
            107.5888658,
            -6.9451811,
            0
          ],
          [
            107.5890571,
            -6.9452671,
            0
          ],
          [
            107.5891029,
            -6.9452877,
            0
          ],
          [
            107.5891731,
            -6.9453141,
            0
          ],
          [
            107.5893173,
            -6.9453679,
            0
          ],
          [
            107.5894259,
            -6.945408,
            0
          ]
        ]
      },
      "properties": {
        "name": "Jalan Soekarno-Hatta",
        "styleUrl": "#5246",
        "styleHash": "-63c4b4ac",
        "stroke": "#00A64F",
        "stroke-opacity": 1,
        "stroke-width": 4
      },
      "id": "5245"
    },
    {
      "type": "Feature",
      "geometry": {
        "type": "LineString",
        "coordinates": [
          [
            107.595295,
            -6.9458786,
            0
          ],
          [
            107.5947542,
            -6.9458158,
            0
          ]
        ]
      },
      "properties": {
        "name": "Jalur Masuk Bus",
        "styleUrl": "#5250",
        "styleHash": "78f65c22",
        "stroke": "#00A64F",
        "stroke-opacity": 1,
        "stroke-width": 4
      },
      "id": "5249"
    },
    {
      "type": "Feature",
      "geometry": {
        "type": "LineString",
        "coordinates": [
          [
            107.5944877,
            -6.9457804,
            0
          ],
          [
            107.5940855,
            -6.9457238,
            0
          ]
        ]
      },
      "properties": {
        "name": "Jalur Bus Kota dan AKAP",
        "styleUrl": "#5254",
        "styleHash": "-3ac2bfe6",
        "stroke": "#00A64F",
        "stroke-opacity": 1,
        "stroke-width": 4
      },
      "id": "5253"
    },
    {
      "type": "Feature",
      "geometry": {
        "type": "LineString",
        "coordinates": [
          [
            107.5920057,
            -6.9464327,
            0
          ],
          [
            107.5922205,
            -6.9465024,
            0
          ],
          [
            107.5923591,
            -6.9465464,
            0
          ],
          [
            107.5924183,
            -6.9465651,
            0
          ],
          [
            107.5929217,
            -6.946706,
            0
          ],
          [
            107.5930626,
            -6.9467395,
            0
          ],
          [
            107.5934341,
            -6.9468277,
            0
          ]
        ]
      },
      "properties": {
        "name": "Jalan Soekarno-Hatta",
        "styleUrl": "#5258",
        "styleHash": "11842412",
        "stroke": "#00A64F",
        "stroke-opacity": 1,
        "stroke-width": 4
      },
      "id": "5257"
    },
    {
      "type": "Feature",
      "geometry": {
        "type": "LineString",
        "coordinates": [
          [
            107.5899816,
            -6.945652,
            0
          ],
          [
            107.5902641,
            -6.9457816,
            0
          ],
          [
            107.5904302,
            -6.9458446,
            0
          ],
          [
            107.5905372,
            -6.9458885,
            0
          ]
        ]
      },
      "properties": {
        "name": "Jalan Soekarno-Hatta",
        "styleUrl": "#5262",
        "styleHash": "-11c0cb20",
        "stroke": "#00A64F",
        "stroke-opacity": 1,
        "stroke-width": 4
      },
      "id": "5261"
    },
    {
      "type": "Feature",
      "geometry": {
        "type": "LineString",
        "coordinates": [
          [
            107.5897088,
            -6.945521,
            0
          ],
          [
            107.5897693,
            -6.9455492,
            0
          ]
        ]
      },
      "properties": {
        "name": "Jalan Soekarno-Hatta",
        "styleUrl": "#5266",
        "styleHash": "3a8618d8",
        "stroke": "#00A64F",
        "stroke-opacity": 1,
        "stroke-width": 4
      },
      "id": "5265"
    },
    {
      "type": "Feature",
      "geometry": {
        "type": "LineString",
        "coordinates": [
          [
            107.5844282,
            -6.9430135,
            0
          ],
          [
            107.584573,
            -6.9431186,
            0
          ],
          [
            107.584642,
            -6.9431671,
            0
          ],
          [
            107.5847245,
            -6.9432291,
            0
          ],
          [
            107.5848895,
            -6.9433396,
            0
          ],
          [
            107.5849105,
            -6.9433545,
            0
          ]
        ]
      },
      "properties": {
        "name": "Jalan Soekarno-Hatta",
        "styleUrl": "#5270",
        "styleHash": "174129a6",
        "stroke": "#00A64F",
        "stroke-opacity": 1,
        "stroke-width": 4
      },
      "id": "5269"
    },
    {
      "type": "Feature",
      "geometry": {
        "type": "LineString",
        "coordinates": [
          [
            107.5934341,
            -6.9468277,
            0
          ],
          [
            107.5935172,
            -6.946847,
            0
          ],
          [
            107.5935575,
            -6.9468564,
            0
          ],
          [
            107.5936688,
            -6.9468823,
            0
          ],
          [
            107.593986,
            -6.9469544,
            0
          ],
          [
            107.5940785,
            -6.9469738,
            0
          ],
          [
            107.5941765,
            -6.9469938,
            0
          ],
          [
            107.5942182,
            -6.9470057,
            0
          ],
          [
            107.5946413,
            -6.947092,
            0
          ],
          [
            107.5946801,
            -6.9470993,
            0
          ]
        ]
      },
      "properties": {
        "name": "Jalan Soekarno-Hatta",
        "styleUrl": "#5274",
        "styleHash": "63880d9e",
        "stroke": "#00A64F",
        "stroke-opacity": 1,
        "stroke-width": 4
      },
      "id": "5273"
    },
    {
      "type": "Feature",
      "geometry": {
        "type": "LineString",
        "coordinates": [
          [
            107.5937479,
            -6.9458174,
            0
          ],
          [
            107.5937354,
            -6.9458345,
            0
          ],
          [
            107.5937192,
            -6.9458627,
            0
          ],
          [
            107.5937098,
            -6.9458851,
            0
          ]
        ]
      },
      "properties": {
        "name": "Jalur Bus Kota",
        "styleUrl": "#5278",
        "styleHash": "-50310e6a",
        "stroke": "#00A64F",
        "stroke-opacity": 1,
        "stroke-width": 4
      },
      "id": "5277"
    },
    {
      "type": "Feature",
      "geometry": {
        "type": "LineString",
        "coordinates": [
          [
            107.5937098,
            -6.9458851,
            0
          ],
          [
            107.5936967,
            -6.9459132,
            0
          ]
        ]
      },
      "properties": {
        "name": "Jalur Bus Kota",
        "styleUrl": "#5282",
        "styleHash": "-7375fd9c",
        "stroke": "#00A64F",
        "stroke-opacity": 1,
        "stroke-width": 4
      },
      "id": "5281"
    },
    {
      "type": "Feature",
      "geometry": {
        "type": "LineString",
        "coordinates": [
          [
            107.5940315,
            -6.9457129,
            0
          ],
          [
            107.5939798,
            -6.9457037,
            0
          ]
        ]
      },
      "properties": {
        "name": "Jalur Bus Kota dan AKAP",
        "styleUrl": "#5286",
        "styleHash": "-272f19a4",
        "stroke": "#00A64F",
        "stroke-opacity": 1,
        "stroke-width": 4
      },
      "id": "5285"
    },
    {
      "type": "Feature",
      "geometry": {
        "type": "LineString",
        "coordinates": [
          [
            107.5939798,
            -6.9457037,
            0
          ],
          [
            107.5938573,
            -6.9457504,
            0
          ],
          [
            107.5938167,
            -6.9457793,
            0
          ],
          [
            107.5937687,
            -6.9458089,
            0
          ],
          [
            107.5937479,
            -6.9458174,
            0
          ]
        ]
      },
      "properties": {
        "name": "Route Segment",
        "styleUrl": "#5290",
        "styleHash": "-4a7408d6",
        "stroke": "#00A64F",
        "stroke-opacity": 1,
        "stroke-width": 4
      },
      "id": "5289"
    },
    {
      "type": "Feature",
      "geometry": {
        "type": "LineString",
        "coordinates": [
          [
            107.5940855,
            -6.9457238,
            0
          ],
          [
            107.5940315,
            -6.9457129,
            0
          ]
        ]
      },
      "properties": {
        "name": "Jalur Bus Kota dan AKAP",
        "styleUrl": "#5294",
        "styleHash": "1d2db22",
        "stroke": "#00A64F",
        "stroke-opacity": 1,
        "stroke-width": 4
      },
      "id": "5293"
    },
    {
      "type": "Feature",
      "geometry": {
        "type": "LineString",
        "coordinates": [
          [
            107.5947542,
            -6.9458158,
            0
          ],
          [
            107.5946724,
            -6.9458045,
            0
          ],
          [
            107.5944877,
            -6.9457804,
            0
          ]
        ]
      },
      "properties": {
        "name": "Jalur Bus Kota dan AKAP",
        "styleUrl": "#5298",
        "styleHash": "4e19bf1a",
        "stroke": "#00A64F",
        "stroke-opacity": 1,
        "stroke-width": 4
      },
      "id": "5297"
    },
    {
      "type": "Feature",
      "geometry": {
        "type": "LineString",
        "coordinates": [
          [
            107.530779,
            -7.0141857,
            0
          ],
          [
            107.5312215,
            -7.0128722,
            0
          ]
        ]
      },
      "properties": {
        "name": "Jalan Tol Soreang–Pasir Koja",
        "styleUrl": "#5302",
        "styleHash": "-5719c22e",
        "stroke": "#00A64F",
        "stroke-opacity": 1,
        "stroke-width": 4
      },
      "id": "5301"
    },
    {
      "type": "Feature",
      "geometry": {
        "type": "LineString",
        "coordinates": [
          [
            107.5823106,
            -6.941111,
            0
          ],
          [
            107.582497,
            -6.9413067,
            0
          ],
          [
            107.5826593,
            -6.9414771,
            0
          ],
          [
            107.5828645,
            -6.9416649,
            0
          ],
          [
            107.5831212,
            -6.9419015,
            0
          ]
        ]
      },
      "properties": {
        "name": "Jalan Soekarno-Hatta",
        "styleUrl": "#5306",
        "styleHash": "-ad2de36",
        "stroke": "#00A64F",
        "stroke-opacity": 1,
        "stroke-width": 4
      },
      "id": "5305"
    }
  ]
}